"formal_name","location_address","suburb","postcode","address","latitude","longitude","category"
"Albert Road Clinic","31-33 Albert Road","South Melbourne",3205,"31-33 Albert Road, South Melbourne, VIC, 3205, Australia",-37.8351445,144.9709936,"Hospital"
"Albury Wodonga Health","69 Vermont Street","Wodonga",3690,"69 Vermont Street, Wodonga, VIC, 3690, Australia",-36.1321837,146.879975,"Hospital"
"Albury Wodonga Health, Albury Campus","Borella","Albury",2640,"Borella, Albury, VIC, 2640, Australia",-36.084404228,146.919771387,"Hospital"
"Alexandra District Health","20 Cooper Street","Alexandra",3714,"20 Cooper Street, Alexandra, VIC, 3714, Australia",-37.1944937,145.7152933,"Hospital"
"Alfred Health","Commercial Road","Melbourne",3004,"Commercial Road, Melbourne, VIC, 3004, Australia",-37.8448389,144.9789509,"Hospital"
"Alpine Health","30 O'Donnell Avenue","Myrtleford",3737,"30 O'Donnell Avenue, Myrtleford, VIC, 3737, Australia",-36.55459,146.72753,"Hospital"
"Angliss Hospital","Albert Street","Upper Ferntree Gully",3156,"Albert Street, Upper Ferntree Gully, VIC, 3156, Australia",-37.9000695,145.3151525,"Hospital"
"Appearance Medical Centre","57 Garsed Street","Bendigo",3550,"57 Garsed Street, Bendigo, VIC, 3550, Australia",-36.765091,144.279712,"Hospital"
"Austin Health","145 Studley Road","Heidelberg",3084,"145 Studley Road, Heidelberg, VIC, 3084, Australia",-37.7555989,145.0585637,"Hospital"
"Austin Health - Heidelberg Repatriation Hospital","300 Waterdale Road","Heidelberg Heights",3081,"300 Waterdale Road, Heidelberg Heights, VIC, 3081, Australia",-37.755479,145.045488,"Hospital"
"Bairnsdale Regional Health Service","122 Day St","Bairnsdale",3875,"122 Day St, Bairnsdale, VIC, 3875, Australia",-37.831219,147.608442,"Hospital"
"Ballan District Health and Care","33 Cowie Street","Ballan",3342,"33 Cowie Street, Ballan, VIC, 3342, Australia",-37.599578,144.222389,"Hospital"
"Ballarat Day Procedure Centre","1119/1123 Howitt Street","Ballarat",3355,"1119/1123 Howitt Street, Ballarat, VIC, 3355, Australia",-37.54090795,143.832191461499,"Hospital"
"Ballarat Health Services","Drummond Street North","Ballarat",3353,"Drummond Street North, Ballarat, VIC, 3353, Australia",-37.5597424,143.8476414,"Hospital"
"Barwon Health","272-322 Ryrie Street","Geelong",3220,"272-322 Ryrie Street, Geelong, VIC, 3220, Australia",-38.151299,144.365972,"Hospital"
"Bass Coast Health","235 Graham Street","Wonthaggi",3995,"235 Graham Street, Wonthaggi, VIC, 3995, Australia",-38.607283,145.581153,"Hospital"
"Bayside Day Procedure and Specialist Centre","141 Cranbourne Road","Frankston",3199,"141 Cranbourne Road, Frankston, VIC, 3199, Australia",-38.148189,145.143379,"Hospital"
"Bayside Endoscopy Day Hospital","441 South Road","Moorabbin",3189,"441 South Road, Moorabbin, VIC, 3189, Australia",-37.936411,145.05713,"Hospital"
"Bayswater Day Procedure and Specialist Centre","664 Mountain Highway","Bayswater",3153,"664 Mountain Highway, Bayswater, VIC, 3153, Australia",-37.8418999,145.2629359,"Hospital"
"Beaufort and Skipton Health Service","28 Havelock Street","Beaufort",3373,"28 Havelock Street, Beaufort, VIC, 3373, Australia",-37.43115335,143.38242045452,"Hospital"
"Beechworth Health Service","52 Sydney Road","Beechworth",3747,"52 Sydney Road, Beechworth, VIC, 3747, Australia",-36.3490283,146.691611278947,"Hospital"
"Beleura Private Hospital","925 Nepean Highway","Mornington",3931,"925 Nepean Highway, Mornington, VIC, 3931, Australia",-38.225153,145.050007,"Hospital"
"Bellbird Private Hospital","198 Canterbury Road","Blackburn",3130,"198 Canterbury Road, Blackburn, VIC, 3130, Australia",-37.832849,145.155273,"Hospital"
"Benalla Health","45-63 Coster Street","Benalla",3672,"45-63 Coster Street, Benalla, VIC, 3672, Australia",-36.55495715,145.99449813503,"Hospital"
"Bendigo Day Surgery","1-7 Chum Street","Bendigo",3550,"1-7 Chum Street, Bendigo, VIC, 3550, Australia",-36.7624286,144.261495,"Hospital"
"Bendigo Health","62 Lucan St","Bendigo",3550,"62 Lucan St, Bendigo, VIC, 3550, Australia",-36.749253,144.284141,"Hospital"
"Bentleigh Surgicentre","155 Jasper Road","Bentleigh",3204,"155 Jasper Road, Bentleigh, VIC, 3204, Australia",-37.920259,145.041206,"Hospital"
"Berwick Surgicentre","22 Langmore Lane","Berwick",3806,"22 Langmore Lane, Berwick, VIC, 3806, Australia",-38.033496,145.346519,"Hospital"
"Boort District Health","31 Kiniry Street","Boort",3537,"31 Kiniry Street, Boort, VIC, 3537, Australia",-36.111804,143.727836,"Hospital"
"Box Hill Hospital","51 Nelson Road","Box Hill",3128,"51 Nelson Road, Box Hill, VIC, 3128, Australia",-37.813761,145.119799,"Hospital"
"Brighton Plastic Surgery Centre","206 New Street","Brighton",3186,"206 New Street, Brighton, VIC, 3186, Australia",-37.91256,144.991817,"Hospital"
"Broadmeadows Health Service","35 Johnstone St","Broadmeadows",3047,"35 Johnstone St, Broadmeadows, VIC, 3047, Australia",-37.683982,144.913418,"Hospital"
"Brunswick Private Hospital","82 Moreland Road","Brunswick",3056,"82 Moreland Road, Brunswick, VIC, 3056, Australia",-37.756482,144.971707,"Hospital"
"Bundoora Extended Care Centre","1231 Plenty Road","Bundoora",3083,"1231 Plenty Road, Bundoora, VIC, 3083, Australia",-37.7010738,145.0553803,"Hospital"
"Cabrini Brighton","243 New Street","Brighton",3186,"243 New Street, Brighton, VIC, 3186, Australia",-37.911664,144.991182481468,"Hospital"
"Cabrini Health Elsternwick Rehabilitation Service","494 Glenhuntly Road","Elsternwick",3185,"494 Glenhuntly Road, Elsternwick, VIC, 3185, Australia",-37.885529,145.009321,"Hospital"
"Cabrini Hopetoun Rehabilitation","2-4 Hopetoun Street","Elsternwick",3185,"2-4 Hopetoun Street, Elsternwick, VIC, 3185, Australia",-37.8836979,145.010281,"Hospital"
"Cabrini Malvern","181-183 Wattletree Road","Malvern",3144,"181-183 Wattletree Road, Malvern, VIC, 3144, Australia",-37.8619388,145.033675,"Hospital"
"Cabrini Prahran","646 High Street","Prahran East",3181,"646 High Street, Prahran East, VIC, 3181, Australia",-37.85412,145.008873,"Hospital"
"Calvary Health Care Bethlehem Ltd.","476 Kooyong Road","Caulfield",3162,"476 Kooyong Road, Caulfield, VIC, 3162, Australia",-37.897105,145.013082,"Hospital"
"Caritas Christi Hospice Ltd","104 Studley Park Road","Kew",3101,"104 Studley Park Road, Kew, VIC, 3101, Australia",-37.8044972,145.0156781,"Hospital"
"Casey Hospital","52 Kangan Drive","Berwick",3806,"52 Kangan Drive, Berwick, VIC, 3806, Australia",-38.042334,145.346076,"Hospital"
"Casterton Memorial Hospital","63-69 Russell Street","Casterton",3311,"63-69 Russell Street, Casterton, VIC, 3311, Australia",-37.5902311,141.3932316,"Hospital"
"Castlemaine Health","142 Cornish Street","Castlemaine",3450,"142 Cornish Street, Castlemaine, VIC, 3450, Australia",-37.0519115,144.2123435,"Hospital"
"Caulfield Hospital","260 Kooyong Road","Caulfield",3162,"260 Kooyong Road, Caulfield, VIC, 3162, Australia",-37.8823815,145.016733,"Hospital"
"Central Gippsland Health Service","155 Guthridge Parade","Sale",3850,"155 Guthridge Parade, Sale, VIC, 3850, Australia",-38.10892,147.08139,"Hospital"
"Central Highlands Rural Health","13 Hospital Street","Daylesford",3460,"13 Hospital Street, Daylesford, VIC, 3460, Australia",-37.33721345,144.145291480645,"Hospital"
"Chesterville Day Hospital","28 Chesterville Road","Cheltenham",3192,"28 Chesterville Road, Cheltenham, VIC, 3192, Australia",-37.9604882,145.056943,"Hospital"
"Cobden District Health Service Inc.","5 Victoria Street","Cobden",3266,"5 Victoria Street, Cobden, VIC, 3266, Australia",-38.332234,143.0763,"Hospital"
"Coburg Endoscopy Centre","15 Munro Street","Coburg",3058,"15 Munro Street, Coburg, VIC, 3058, Australia",-37.745017,144.964771,"Hospital"
"Cohuna District Hospital","144-158 King George Street","Cohuna",3568,"144-158 King George Street, Cohuna, VIC, 3568, Australia",-35.80008415,144.214756069194,"Hospital"
"Colac Area Health","2-28 Conner St","Colac",3250,"2-28 Conner St, Colac, VIC, 3250, Australia",-38.340956,143.582875,"Hospital"
"Corryong Health","20 Kiell Street","Corryong",3707,"20 Kiell Street, Corryong, VIC, 3707, Australia",-36.198772,147.90333,"Hospital"
"Corymbia House","92-94 David Street","Dandenong",3175,"92-94 David Street, Dandenong, VIC, 3175, Australia",-37.977233,145.21691,"Hospital"
"Cotham Private Hospital","209 Cotham Road","Kew",3101,"209 Cotham Road, Kew, VIC, 3101, Australia",-37.808698,145.0481,"Hospital"
"Craigieburn Health Service","350 Craigieburn Road West","Craigieburn",3064,"350 Craigieburn Road West, Craigieburn, VIC, 3064, Australia",-37.595985,144.917415,"Hospital"
"Cranbourne Integrated Care Centre","140-154 Sladen Street","Cranbourne",3977,"140-154 Sladen Street, Cranbourne, VIC, 3977, Australia",-38.113052,145.280789,"Hospital"
"Dandenong Eye Clinic","1-3 Falkiner Crescent","Dandenong",3175,"1-3 Falkiner Crescent, Dandenong, VIC, 3175, Australia",-37.974247,145.2233,"Hospital"
"Dandenong Hospital","105-135 David Street","Dandenong",3175,"105-135 David Street, Dandenong, VIC, 3175, Australia",-37.977337,145.220576,"Hospital"
"Darebin Endoscopy Services","42 Station Street","Fairfield",3078,"42 Station Street, Fairfield, VIC, 3078, Australia",-37.7811,145.017568,"Hospital"
"Delmont Private Hospital","298 Warrigal Road","Burwood",3125,"298 Warrigal Road, Burwood, VIC, 3125, Australia",-37.856688,145.094301,"Hospital"
"Dental Health Services Victoria","720 Swanston Street","Carlton",3053,"720 Swanston Street, Carlton, VIC, 3053, Australia",-37.799306,144.9643473,"Hospital"
"Diamond Valley Renal Care Centre","Grimshaw Street","Greensborough",3088,"Grimshaw Street, Greensborough, VIC, 3088, Australia",-37.7032432,145.0907777,"Hospital"
"Digestive Health Centre","90 David Street","Dandenong",3175,"90 David Street, Dandenong, VIC, 3175, Australia",-37.9773876,145.216630247096,"Hospital"
"Donvale Rehabilitation Hospital","1119-1121 Doncaster Road","Donvale",3111,"1119-1121 Doncaster Road, Donvale, VIC, 3111, Australia",-37.789994,145.171492,"Hospital"
"Dorset Rehabilitation Centre","146 Derby Street","Pascoe Vale",3044,"146 Derby Street, Pascoe Vale, VIC, 3044, Australia",-37.723225,144.947398,"Hospital"
"Dr Walters Vasectomy Centre","486 Burwood Highway","Vermont South",3133,"486 Burwood Highway, Vermont South, VIC, 3133, Australia",-37.8569856,145.183228,"Hospital"
"East Grampians Health Service","Lot 5B Girdlestone Street","Ararat",3377,"Lot 5B Girdlestone Street, Ararat, VIC, 3377, Australia",-37.279771,142.936307,"Hospital"
"East Melbourne Day Procedure Centre","116 - 118 Wellington Parade","East Melbourne",3002,"116 - 118 Wellington Parade, East Melbourne, VIC, 3002, Australia",-37.816358,144.986265,"Hospital"
"East Wimmera Health Service","52 North Western Road","St Arnaud",3478,"52 North Western Road, St Arnaud, VIC, 3478, Australia",-36.609559,143.246848,"Hospital"
"Eastern Health","Level 4, 5 Arnold Street","Box Hill",3128,"Level 4, 5 Arnold Street, Box Hill, VIC, 3128, Australia",-37.81455835,145.11846585,"Hospital"
"Eastside Endoscopy Centre","33 Wantirna Road","Ringwood",3134,"33 Wantirna Road, Ringwood, VIC, 3134, Australia",-37.819786,145.227512,"Hospital"
"Echuca Regional Health","9-27 Frances Street","Echuca",3564,"9-27 Frances Street, Echuca, VIC, 3564, Australia",-36.13778,144.748754,"Hospital"
"Edenhope and District Hospital","128-134 Elizabeth Street","Edenhope",3318,"128-134 Elizabeth Street, Edenhope, VIC, 3318, Australia",-37.034981,141.289471,"Hospital"
"Epworth Cliveden","29 Simpson Street","East Melbourne",3002,"29 Simpson Street, East Melbourne, VIC, 3002, Australia",-37.8156804,144.987479542241,"Hospital"
"Epworth Eastern Hospital","1 Arnold Street","Box Hill",3128,"1 Arnold Street, Box Hill, VIC, 3128, Australia",-37.814554,145.119557,"Hospital"
"Epworth Freemasons","166 Clarendon Street","East Melbourne",3002,"166 Clarendon Street, East Melbourne, VIC, 3002, Australia",-37.811073,144.984064902876,"Hospital"
"Epworth Rehabilitation Brighton","85-91 Wilson Street","Brighton",3186,"85-91 Wilson Street, Brighton, VIC, 3186, Australia",-37.9145206,145.0029716,"Hospital"
"Epworth Rehabilitation Camberwell","888 Toorak Road","Camberwell",3124,"888 Toorak Road, Camberwell, VIC, 3124, Australia",-37.8462317,145.05448312418,"Hospital"
"Epworth Richmond","89 Bridge Road","Richmond",3121,"89 Bridge Road, Richmond, VIC, 3121, Australia",-37.8168201,144.9940109,"Hospital"
"Essendon Day Procedure Centre","Level 2, 665 Mount Alexander Road","Moonee Ponds",3039,"Level 2, 665 Mount Alexander Road, Moonee Ponds, VIC, 3039, Australia",-37.765792,144.923629,"Hospital"
"Essendon Private Clinic","33-35 Rosehill Road","Essendon",3040,"33-35 Rosehill Road, Essendon, VIC, 3040, Australia",-37.748467,144.885381,"Hospital"
"Euroa Health Inc","36 Kennedy Street","Euroa",3666,"36 Kennedy Street, Euroa, VIC, 3666, Australia",-36.75981995,145.56940445,"Hospital"
"Footscray Hospital","160 Gordon Street","Footscray",3011,"160 Gordon Street, Footscray, VIC, 3011, Australia",-37.792388,144.88738,"Hospital"
"Forest Hill Dialysis Centre","Shops 26 & 27 Forest Hill Chase, 69 Mahoneys","Forest Hill",3131,"Shops 26 & 27 Forest Hill Chase, 69 Mahoneys, Forest Hill, VIC, 3131, Australia",-37.8362738,145.1690911,"Hospital"
"Frances Perry House","Levels 6 & 7 Cnr Grattan St & Flemington Rd","Parkville",3052,"Levels 6 & 7 Cnr Grattan St & Flemington Rd, Parkville, VIC, 3052, Australia",-37.7871148,144.9515533,"Hospital"
"Frankston Hospital","Hastings Rd","Frankston",3199,"Hastings Rd, Frankston, VIC, 3199, Australia",-38.1536671,145.1338638,"Hospital"
"Geelong Private Hospital","272 Ryrie St","Geelong",3220,"272 Ryrie St, Geelong, VIC, 3220, Australia",-38.151299,144.365972,"Hospital"
"Gippsland Southern Health Service","66 Koonwarra Road","Leongatha",3953,"66 Koonwarra Road, Leongatha, VIC, 3953, Australia",-38.487597,145.951417,"Hospital"
"Glen Eira Day Surgery","554 Hawthorn Road","Caulfield South",3162,"554 Hawthorn Road, Caulfield South, VIC, 3162, Australia",-37.8999015,145.0195001,"Hospital"
"Glenferrie Private Hospital","25 Linda Crescent","Hawthorn",3122,"25 Linda Crescent, Hawthorn, VIC, 3122, Australia",-37.819345,145.030915,"Hospital"
"Goulburn Valley Health","2 Graham Street","Shepparton",3630,"2 Graham Street, Shepparton, VIC, 3630, Australia",-36.362111,145.405657,"Hospital"
"Hawthorn Birth and Development Centre","144 Barkers Road","Hawthorn",3122,"144 Barkers Road, Hawthorn, VIC, 3122, Australia",-37.814099,145.030339,"Hospital"
"Healesville and District Hospital","377 Maroondah Highway","Healesville",3777,"377 Maroondah Highway, Healesville, VIC, 3777, Australia",-37.64673455,145.528977433993,"Hospital"
"Heathcote Health","39 Hospital Street","Heathcote",3523,"39 Hospital Street, Heathcote, VIC, 3523, Australia",-36.925604,144.709705,"Hospital"
"Heidelberg Endoscopy and Day Surgery Centre","177-179 Northern Road","Heidelberg",3081,"177-179 Northern Road, Heidelberg, VIC, 3081, Australia",-37.73049,145.060164,"Hospital"
"Hesse Rural Health Service","8 Gosney Street","Winchelsea",3241,"8 Gosney Street, Winchelsea, VIC, 3241, Australia",-38.243435,143.984994,"Hospital"
"Heyfield Hospital Inc.","21 Tyson Road","Heyfield",3858,"21 Tyson Road, Heyfield, VIC, 3858, Australia",-37.976147,146.784923,"Hospital"
"Heywood Rural Health","21 Barclay Street","Heywood",3304,"21 Barclay Street, Heywood, VIC, 3304, Australia",-38.1379457,141.624074,"Hospital"
"Hobson's Bay Endoscopy Centre Altona","5 Sargood Street","Altona",3018,"5 Sargood Street, Altona, VIC, 3018, Australia",-37.865585,144.829154,"Hospital"
"Hobson's Bay Werribee Endoscopy Centre","179 Princes Highway","Werribee",3030,"179 Princes Highway, Werribee, VIC, 3030, Australia",-37.89054,144.686732,"Hospital"
"Hyperbaric Health Wound Centre Berwick","3 Gibb Street","Berwick",3806,"3 Gibb Street, Berwick, VIC, 3806, Australia",-38.03447465,145.34499977697,"Hospital"
"Inglewood and District Health Service","3 Hospital Street","Inglewood",3517,"3 Hospital Street, Inglewood, VIC, 3517, Australia",-36.571906,143.873078,"Hospital"
"Ivanhoe Endoscopy and Day Procedure Centre","2/226 Upper Heidelberg Road","Ivanhoe",3079,"2/226 Upper Heidelberg Road, Ivanhoe, VIC, 3079, Australia",-37.769007,145.04239,"Hospital"
"Jessie McPherson Private Hospital","246 Clayton Road","Clayton",3168,"246 Clayton Road, Clayton, VIC, 3168, Australia",-37.9200807,145.1223061,"Hospital"
"John Fawkner Private Hospital","275 Moreland Road","Coburg",3058,"275 Moreland Road, Coburg, VIC, 3058, Australia",-37.7546374,144.9587474,"Hospital"
"Jolimont Endoscopy","19/201 Wellington Parade South","East Melbourne",3002,"19/201 Wellington Parade South, East Melbourne, VIC, 3002, Australia",-37.816765,144.978672,"Hospital"
"Keilor Private","771 Old Calder Highway","Keilor",3036,"771 Old Calder Highway, Keilor, VIC, 3036, Australia",-37.7196908,144.834476077587,"Hospital"
"Kerang District Health","13 Burgoyne Street","Kerang",3579,"13 Burgoyne Street, Kerang, VIC, 3579, Australia",-35.72441,143.917072,"Hospital"
"Kew Endoscopy Centre","Units 4/5, 828 High Street","Kew",3101,"Units 4/5, 828 High Street, Kew, VIC, 3101, Australia",-37.8070544,145.0301013,"Hospital"
"Kilmore District Health","Rutledge Street","Kilmore",3764,"Rutledge Street, Kilmore, VIC, 3764, Australia",-37.3006388,144.954095,"Hospital"
"Kingston Centre","400 Warrigal Rd","Cheltenham",3192,"400 Warrigal Rd, Cheltenham, VIC, 3192, Australia",-37.954662,145.076853,"Hospital"
"Knox Private Hospital","262 Mountain Highway","Wantirna",3152,"262 Mountain Highway, Wantirna, VIC, 3152, Australia",-37.8486344,145.2281658,"Hospital"
"Kooweerup Regional Health Service","Rossiter Rd","Kooweerup",3981,"Rossiter Rd, Kooweerup, VIC, 3981, Australia",-38.199037,145.491169,"Hospital"
"Kyabram District Health Service","88 Fenaughty Street","Kyabram",3620,"88 Fenaughty Street, Kyabram, VIC, 3620, Australia",-36.315573,145.0421803,"Hospital"
"La Trobe Private Hospital","Cnr Plenty Road & Kingsbury Drive","Bundoora",3083,"Cnr Plenty Road & Kingsbury Drive, Bundoora, VIC, 3083, Australia",-37.6982468,145.0596757,"Hospital"
"Latrobe Regional Hospital","Cnr Princes Highway & Village Avenue","Traralgon West",3844,"Cnr Princes Highway & Village Avenue, Traralgon West, VIC, 3844, Australia",-38.196566,146.533757,"Hospital"
"Linacre Private Hospital","12-16 Linacre Road","Hampton",3188,"12-16 Linacre Road, Hampton, VIC, 3188, Australia",-37.9426807,145.003343742385,"Hospital"
"Maldon Hospital","Chapel Street","Maldon",3463,"Chapel Street, Maldon, VIC, 3463, Australia",-36.9921553,144.0640815,"Hospital"
"Mallee Track Health and Community Service","28 Britt Street","Ouyen",3490,"28 Britt Street, Ouyen, VIC, 3490, Australia",-35.073722,142.313072,"Hospital"
"Malvern Dialysis Centre","Ground Floor, 1133 Malvern Road","Malvern",3144,"Ground Floor, 1133 Malvern Road, Malvern, VIC, 3144, Australia",-37.851528,145.030503,"Hospital"
"Malvern Private Hospital","3-9 Wilton Vale Crescent","Malvern East",3145,"3-9 Wilton Vale Crescent, Malvern East, VIC, 3145, Australia",-37.867104,145.060793,"Hospital"
"Manningham Day Procedure Centre","Level 3, 200 High Street","Lower Templestowe",3107,"Level 3, 200 High Street, Lower Templestowe, VIC, 3107, Australia",-37.773145,145.11521,"Hospital"
"Mansfield District Hospital","53 Highett Street","Mansfield",3722,"53 Highett Street, Mansfield, VIC, 3722, Australia",-37.0576258,146.086110883651,"Hospital"
"Marie Stopes International East St Kilda","338 Dandenong Road","St Kilda East",3182,"338 Dandenong Road, St Kilda East, VIC, 3182, Australia",-37.860192,145.007709,"Hospital"
"Marie Stopes International Maroondah","411 Dorset Road","Croydon",3136,"411 Dorset Road, Croydon, VIC, 3136, Australia",-37.8429863,145.2863351,"Hospital"
"Maroondah Hospital","1-15 Mt Dandenong Rd","East Ringwood",3135,"1-15 Mt Dandenong Rd, East Ringwood, VIC, 3135, Australia",-37.808333,145.24932,"Hospital"
"Maryborough District Health Service","75-87 Clarendon St","Maryborough",3465,"75-87 Clarendon St, Maryborough, VIC, 3465, Australia",-37.0411009,143.7396713,"Hospital"
"Maryvale Private Hospital","McDonald Street","Morwell",3840,"McDonald Street, Morwell, VIC, 3840, Australia",-38.2277828,146.4120085,"Hospital"
"Masada Private Hospital","26-28 Balaclava Road","East St Kilda",3183,"26-28 Balaclava Road, East St Kilda, VIC, 3183, Australia",-37.869802,145.003096,"Hospital"
"Melbourne Day Surgery","961 Glenhuntly Road","Caulfield",3162,"961 Glenhuntly Road, Caulfield, VIC, 3162, Australia",-37.887835,145.030423,"Hospital"
"Melbourne Endoscopy Group DPC","34/517 St Kilda Road","Melbourne",3000,"34/517 St Kilda Road, Melbourne, VIC, 3000, Australia",-37.8445351,144.9789294,"Hospital"
"Melbourne Endoscopy Monash Day Hospital (DPC)","277 Clayton Road","Clayton",3168,"277 Clayton Road, Clayton, VIC, 3168, Australia",-37.9215015,145.1202812,"Hospital"
"Melbourne Health","Level 8 South, RMH, 300 Grattan Street","Parkville",3050,"Level 8 South, RMH, 300 Grattan Street, Parkville, VIC, 3050, Australia",-37.799269,144.956057,"Hospital"
"Melbourne Oral and Facial Surgery Pty Ltd","Level 12, 63 Exhibition Street","Melbourne",3000,"Level 12, 63 Exhibition Street, Melbourne, VIC, 3000, Australia",-37.814586,144.971427,"Hospital"
"Melbourne Private Hospital","1f Royal Parade","Parkville",3050,"1f Royal Parade, Parkville, VIC, 3050, Australia",-37.7982862,144.95710847477,"Hospital"
"Melton Health","195-209 Barries Road","Melton",3337,"195-209 Barries Road, Melton, VIC, 3337, Australia",-37.6874637,144.558226284917,"Hospital"
"Mercy Health - O'Connell Family Centre","6 Mont Albert Road","Canterbury",3126,"6 Mont Albert Road, Canterbury, VIC, 3126, Australia",-37.81631,145.061837,"Hospital"
"Mercy Hospital for Women","163 Studley Road","Heidelberg",3084,"163 Studley Road, Heidelberg, VIC, 3084, Australia",-37.7558954,145.0609462,"Hospital"
"Mercy Hospitals Victoria Limited","Shelley Street","Richmond",3121,"Shelley Street, Richmond, VIC, 3121, Australia",-37.8111783,144.9936407,"Hospital"
"Mildura Private Hospital","220 Thirteenth Street","Mildura",3500,"220 Thirteenth Street, Mildura, VIC, 3500, Australia",-34.18483415,142.145701428732,"Hospital"
"Mitcham Private Hospital","27 Doncaster East Road","Mitcham",3132,"27 Doncaster East Road, Mitcham, VIC, 3132, Australia",-37.81030805,145.194748218057,"Hospital"
"Monash IVF Clinic","142 Little Ryrie Street","Geelong",3220,"142 Little Ryrie Street, Geelong, VIC, 3220, Australia",-38.15171355,144.363623772849,"Hospital"
"Monash Medical Centre, Moorabbin Campus","865 Centre Road","East Bentleigh",3165,"865 Centre Road, East Bentleigh, VIC, 3165, Australia",-37.921492,145.062994,"Hospital"
"Monash Surgical Private Hospital","252-254 Clayton Road","Clayton",3168,"252-254 Clayton Road, Clayton, VIC, 3168, Australia",-37.9219162,145.120806615832,"Hospital"
"Mount Eliza Rehabilitation, Aged and Palliative Care","33 Jacksons Rd","Mt Eliza",3930,"33 Jacksons Rd, Mt Eliza, VIC, 3930, Australia",-38.167822,145.087951,"Hospital"
"Moyne Health Services","Villiers Street","Port Fairy",3284,"Villiers Street, Port Fairy, VIC, 3284, Australia",-38.3866709,142.2270968,"Hospital"
"Mulgrave Private Hospital","535-559 Police Road","Mulgrave",3170,"535-559 Police Road, Mulgrave, VIC, 3170, Australia",-37.93859,145.212101,"Hospital"
"Murray Valley Private Hospital","63 Pearce St","Wodonga",3690,"63 Pearce St, Wodonga, VIC, 3690, Australia",-36.1372373,146.8798179,"Hospital"
"Nagambie HealthCare","22 Church Street","Nagambie",3608,"22 Church Street, Nagambie, VIC, 3608, Australia",-36.780578,145.150090995327,"Hospital"
"NCN Health","2 Katamatitie Road","Numurkah",3636,"2 Katamatitie Road, Numurkah, VIC, 3636, Australia",-36.099755,145.443236,"Hospital"
"Neerim District Soldiers Memorial Hospital","29 Main Road","Neerim",3831,"29 Main Road, Neerim, VIC, 3831, Australia",-38.022053,145.954085,"Hospital"
"Noble Park Endoscopy Centre","1304 Heatherton Road","Noble Park",3174,"1304 Heatherton Road, Noble Park, VIC, 3174, Australia",-37.96712,145.18972,"Hospital"
"North Eastern Rehabilitation Centre","134-142 Ford Street","Ivanhoe",3079,"134-142 Ford Street, Ivanhoe, VIC, 3079, Australia",-37.7635299,145.031036210242,"Hospital"
"Northeast Health Wangaratta","35-47 Green Street","Wangaratta",3677,"35-47 Green Street, Wangaratta, VIC, 3677, Australia",-36.35411275,146.313804133264,"Hospital"
"Northern Health","201 Bell Street","Preston",3072,"201 Bell Street, Preston, VIC, 3072, Australia",-37.746105,145.010058,"Hospital"
"Northpark Private Hospital","10 Greenhills Road","Bundoora",3083,"10 Greenhills Road, Bundoora, VIC, 3083, Australia",-37.691614,145.061589,"Hospital"
"Northwest Day Hospital","221 Maribyrnong Road","Ascot Vale",3032,"221 Maribyrnong Road, Ascot Vale, VIC, 3032, Australia",-37.771154,144.90938,"Hospital"
"Omeo District Health","12 Easton Street","Omeo",3898,"12 Easton Street, Omeo, VIC, 3898, Australia",-37.0983225,147.597175289103,"Hospital"
"Orbost Regional Health","Boundary Road","Orbost",3888,"Boundary Road, Orbost, VIC, 3888, Australia",-37.701398,148.464488,"Hospital"
"PANCH Health Service","300 Bell Street","Preston",3072,"300 Bell Street, Preston, VIC, 3072, Australia",-37.7453981,145.0078838,"Hospital"
"Peninsula Endoscopy Centre","17 Yuille Street","Frankston",3199,"17 Yuille Street, Frankston, VIC, 3199, Australia",-38.153014,145.125239,"Hospital"
"Peninsula Health","c/- Frankston Hospital, Hastings Road","Frankston",3199,"c/- Frankston Hospital, Hastings Road, Frankston, VIC, 3199, Australia",-38.1536671,145.1338638,"Hospital"
"Peninsula Oncology Centre","24-28 Frankston-Flinders Road","Frankston",3199,"24-28 Frankston-Flinders Road, Frankston, VIC, 3199, Australia",-38.157223,145.135061,"Hospital"
"Peninsula Private Hospital","49 McClelland Drive","Frankston",3199,"49 McClelland Drive, Frankston, VIC, 3199, Australia",-38.1506663,145.1730469,"Hospital"
"Peter James Centre, The","321-345 Burwood Hwy","Forest Hill",3131,"321-345 Burwood Hwy, Forest Hill, VIC, 3131, Australia",-37.853991,145.164381,"Hospital"
"Peter MacCallum Cancer Institute","305 Grattan Street","Melbourne",3000,"305 Grattan Street, Melbourne, VIC, 3000, Australia",-37.7999274,144.9562153,"Hospital"
"Portland District Health","Bentinck Street","Portland",3305,"Bentinck Street, Portland, VIC, 3305, Australia",-38.3412512,141.6066221,"Hospital"
"Queen Elizabeth Centre","53 Thomas Street","Noble Park",3174,"53 Thomas Street, Noble Park, VIC, 3174, Australia",-37.97154,145.177824,"Hospital"
"Reservoir Private Hospital","73-75 Pine Street","Reservoir",3073,"73-75 Pine Street, Reservoir, VIC, 3073, Australia",-37.717211,144.996458,"Hospital"
"Ringwood Private Hospital","36 Mount Dandenong Road","Ringwood",3135,"36 Mount Dandenong Road, Ringwood, VIC, 3135, Australia",-37.811248,145.243516,"Hospital"
"Robinvale District Health Services","128-132 Latje Road","Robinvale",3549,"128-132 Latje Road, Robinvale, VIC, 3549, Australia",-34.5841317,142.78149723433,"Hospital"
"Rochester and Elmore District Health Service","1 Pascoe Street","Rochester",3561,"1 Pascoe Street, Rochester, VIC, 3561, Australia",-36.365814,144.697936,"Hospital"
"Rosebud Endoscopy","1537 Point Nepean Road","Rosebud West",3940,"1537 Point Nepean Road, Rosebud West, VIC, 3940, Australia",-38.361857,144.883634,"Hospital"
"Rosebud Hospital","1527 Point Nepean Road","Rosebud",3939,"1527 Point Nepean Road, Rosebud, VIC, 3939, Australia",-38.3614811,144.885347,"Hospital"
"Royal Melbourne Hospital - City Campus","300 Grattan Street","Parkville",3050,"300 Grattan Street, Parkville, VIC, 3050, Australia",-37.799269,144.956057,"Hospital"
"Royal Melbourne Hospital - Royal Park Campus","34-55 Poplar Road","Parkville",3052,"34-55 Poplar Road, Parkville, VIC, 3052, Australia",-37.778987,144.947596,"Hospital"
"Royal Talbot Rehabilitation Centre","1 Yarra Boulevard","Kew",3101,"1 Yarra Boulevard, Kew, VIC, 3101, Australia",-37.789918,145.025906,"Hospital"
"Rural Northwest Health","Lot 1 Dimboola Road","Warracknabeal",3393,"Lot 1 Dimboola Road, Warracknabeal, VIC, 3393, Australia",-36.2531827,142.3819587,"Hospital"
"Sandringham Hospital","193 Bluff Road","Sandringham",3191,"193 Bluff Road, Sandringham, VIC, 3191, Australia",-37.9613493,145.0184922,"Hospital"
"Seymour Health","Lot 2 Bretonneux Street","Seymour",3660,"Lot 2 Bretonneux Street, Seymour, VIC, 3660, Australia",-37.018726,145.1393266,"Hospital"
"Shepparton Private Hospital","20 Fitzgerald Street","Shepparton",3630,"20 Fitzgerald Street, Shepparton, VIC, 3630, Australia",-36.35913925,145.410922367491,"Hospital"
"Sir John Monash Private Hospital","212-220 Clayton Road","Clayton",3168,"212-220 Clayton Road, Clayton, VIC, 3168, Australia",-37.9186257,145.121471756366,"Hospital"
"South Eastern Private Hospital","313-329 Princes Highway","Noble Park",3174,"313-329 Princes Highway, Noble Park, VIC, 3174, Australia",-37.9663045,145.192029603238,"Hospital"
"South Gippsland Hospital","87 Station Road","Foster",3960,"87 Station Road, Foster, VIC, 3960, Australia",-38.6591277,146.206411976263,"Hospital"
"South West Healthcare","Ryot Street","Warrnambool",3280,"Ryot Street, Warrnambool, VIC, 3280, Australia",-38.3750107,142.4777231,"Hospital"
"South West Healthcare, Camperdown Campus","9 Robinson Street","Camperdown",3260,"9 Robinson Street, Camperdown, VIC, 3260, Australia",-38.236754,143.137817,"Hospital"
"Southern Cross Specialist Centre Day Surgery","250 Childs Road","Mill Park",3082,"250 Childs Road, Mill Park, VIC, 3082, Australia",-37.661653,145.054212,"Hospital"
"Southern Eye Centre, Day Surgery and Laser Centre","44 Cranbourne Road","Frankston",3199,"44 Cranbourne Road, Frankston, VIC, 3199, Australia",-38.145988,145.131991,"Hospital"
"Specialist Surgicentre Docklands","Tenancy 2, 22 Rakaia Way","Docklands",3008,"Tenancy 2, 22 Rakaia Way, Docklands, VIC, 3008, Australia",-37.814688,144.941083,"Hospital"
"Specialist Surgicentre Geelong","200 Malop Street","Geelong",3220,"200 Malop Street, Geelong, VIC, 3220, Australia",-38.1491556,144.366334442478,"Hospital"
"Springvale Endoscopy Services","20 Balmoral Avenue","Springvale",3171,"20 Balmoral Avenue, Springvale, VIC, 3171, Australia",-37.9495467,145.149595133917,"Hospital"
"St Alban's Endoscopy Centre","328-330 Station Road","St Albans",3021,"328-330 Station Road, St Albans, VIC, 3021, Australia",-37.744028,144.779381,"Hospital"
"St George's Health Service","283 Cotham Road","Kew",3101,"283 Cotham Road, Kew, VIC, 3101, Australia",-37.8084292,145.052732378461,"Hospital"
"St John of God Frankston Rehabilitation Hospital","255 Cranbourne Road","Frankston",3199,"255 Cranbourne Road, Frankston, VIC, 3199, Australia",-38.1518552,145.1540492,"Hospital"
"St John of God Hospital Pinelodge Clinic, Dandenong","1480 Heatherton Road","Dandenong",3175,"1480 Heatherton Road, Dandenong, VIC, 3175, Australia",-37.97002,145.213347,"Hospital"
"St John of God Hospital, Ballarat","101 Drummond Street North","Ballarat",3350,"101 Drummond Street North, Ballarat, VIC, 3350, Australia",-37.55761185,143.846182217642,"Hospital"
"St John of God Hospital, Bendigo","133-145 Lily Street","Bendigo",3550,"133-145 Lily Street, Bendigo, VIC, 3550, Australia",-36.761159,144.2633801,"Hospital"
"St John of God Hospital, Berwick","44 Gloucester Avenue","Berwick",3806,"44 Gloucester Avenue, Berwick, VIC, 3806, Australia",-38.034203,145.345522,"Hospital"
"St John of God Hospital, Geelong","80 Myers Street","Geelong",3220,"80 Myers Street, Geelong, VIC, 3220, Australia",-38.15179795,144.357557168236,"Hospital"
"St John of God Hospital, Warrnambool","136 Botanic Road","Warrnambool",3280,"136 Botanic Road, Warrnambool, VIC, 3280, Australia",-38.3714579,142.479167390323,"Hospital"
"St Kilda Day Hospital","26A Dickens Street","Elwood",3184,"26A Dickens Street, Elwood, VIC, 3184, Australia",-37.873095,144.982157,"Hospital"
"St Vincent's Health","41 Victoria Parade","Fitzroy",3065,"41 Victoria Parade, Fitzroy, VIC, 3065, Australia",-37.8076887,144.9744689,"Hospital"
"St Vincent's Private Hospital East Melbourne","159 Grey Street","East Melbourne",3002,"159 Grey Street, East Melbourne, VIC, 3002, Australia",-37.8117913,144.9841621,"Hospital"
"St Vincent's Private Hospital Fitzroy","59 Victoria Parade","Fitzroy",3065,"59 Victoria Parade, Fitzroy, VIC, 3065, Australia",-37.80778615,144.976056240715,"Hospital"
"St Vincent's Private Hospital Kew","5 Studley Avenue","Kew",3101,"5 Studley Avenue, Kew, VIC, 3101, Australia",-37.80652705,145.023694359905,"Hospital"
"Stawell Regional Health","27-29 Sloane Street","Stawell",3380,"27-29 Sloane Street, Stawell, VIC, 3380, Australia",-37.058849,142.780901,"Hospital"
"Stonnington Day Surgery","Level 1, 253 Wattletree Road","Malvern",3144,"Level 1, 253 Wattletree Road, Malvern, VIC, 3144, Australia",-37.863653,145.039398,"Hospital"
"Sunbury Day Hospital","Macedon","Sunbury",3429,"Macedon, Sunbury, VIC, 3429, Australia",-37.593920356,144.735251203,"Hospital"
"Sunshine Hospital","176 Furlong Road","St Albans",3021,"176 Furlong Road, St Albans, VIC, 3021, Australia",-37.7594624,144.815846115986,"Hospital"
"Sunshine Private Day Surgery","145 Furlong Road","St Albans",3021,"145 Furlong Road, St Albans, VIC, 3021, Australia",-37.76112635,144.81629241067,"Hospital"
"Swan Hill District Health","48 Splatt Street","Swan Hill",3585,"48 Splatt Street, Swan Hill, VIC, 3585, Australia",-35.340599,143.556269803699,"Hospital"
"Tallangatta Health Service","Barree Street","Tallangatta",3700,"Barree Street, Tallangatta, VIC, 3700, Australia",-36.2156702,147.1817683,"Hospital"
"Tarietta Day Surgery","73 Kooyong Road","Caulfield North",3161,"73 Kooyong Road, Caulfield North, VIC, 3161, Australia",-37.870213,145.01783,"Hospital"
"Terang and Mortlake Health Service","1 Austin Avenue","Terang",3264,"1 Austin Avenue, Terang, VIC, 3264, Australia",-38.24061,142.902183,"Hospital"
"The Avenue Private Hospital","40 The Avenue","Windsor",3181,"40 The Avenue, Windsor, VIC, 3181, Australia",-37.85510835,144.99865945,"Hospital"
"The Bays Hospital","262-268 Main Street","Mornington",3931,"262-268 Main Street, Mornington, VIC, 3931, Australia",-38.223747,145.0414,"Hospital"
"The Bays Hospital - Hastings","86 Victoria St","Hastings",3915,"86 Victoria St, Hastings, VIC, 3915, Australia",-38.303444,145.190309,"Hospital"
"The Geelong Clinic","98 Townsend Road","Whittington",3219,"98 Townsend Road, Whittington, VIC, 3219, Australia",-38.183524,144.397938,"Hospital"
"The Glen Endoscopy Centre","302 Springvale Road","Glen Waverley",3150,"302 Springvale Road, Glen Waverley, VIC, 3150, Australia",-37.8846595,145.1651723,"Hospital"
"The Hampton Park Women's Health Care Centre","2 Warana Drive","Hampton Park",3976,"2 Warana Drive, Hampton Park, VIC, 3976, Australia",-38.0315086,145.2685558,"Hospital"
"The Melbourne Clinic","130 Church Street","Richmond",3121,"130 Church Street, Richmond, VIC, 3121, Australia",-37.8145778,144.99968,"Hospital"
"The Melbourne Eastern Private Hospital","157 Scoresby Road","Boronia",3155,"157 Scoresby Road, Boronia, VIC, 3155, Australia",-37.8555688,145.268859054061,"Hospital"
"The Northern Hospital","185 Cooper Street","Epping",3076,"185 Cooper Street, Epping, VIC, 3076, Australia",-37.6525206,145.0149132,"Hospital"
"The Royal Children's Hospital","50 Flemington Road","Parkville",3052,"50 Flemington Road, Parkville, VIC, 3052, Australia",-37.7932412,144.9494607,"Hospital"
"The Royal Victorian Eye and Ear Hospital","32 Gisborne Street","East Melbourne",3002,"32 Gisborne Street, East Melbourne, VIC, 3002, Australia",-37.8086576,144.976646,"Hospital"
"The Victoria Clinic","324 Malvern Road","Prahran",3181,"324 Malvern Road, Prahran, VIC, 3181, Australia",-37.847486,144.997458,"Hospital"
"The Victorian Rehabilitation Centre","499 Springvale Road","Glen Waverley",3150,"499 Springvale Road, Glen Waverley, VIC, 3150, Australia",-37.898374,145.162145,"Hospital"
"The Women's Clinic Day Surgical Centre","366 Church Street","Richmond",3121,"366 Church Street, Richmond, VIC, 3121, Australia",-37.822951,144.998224,"Hospital"
"Timboon and District Healthcare Service","21 Hospital Road","Timboon",3268,"21 Hospital Road, Timboon, VIC, 3268, Australia",-38.486257,142.977132,"Hospital"
"Toorak Cosmetic Surgery Day Centre","109 Mathoura Rd","Toorak",3142,"109 Mathoura Rd, Toorak, VIC, 3142, Australia",-37.841388,145.007981,"Hospital"
"Toorak-Malvern Day Surgery Centre","30-32 Glenferrie Road","Malvern",3144,"30-32 Glenferrie Road, Malvern, VIC, 3144, Australia",-37.863969,145.028282,"Hospital"
"Tweddle Child and Family Health Service","53 Adelaide Street","Footscray",3011,"53 Adelaide Street, Footscray, VIC, 3011, Australia",-37.797439,144.887276,"Hospital"
"Victoria Parade Surgery Centre","Level 1, 100 Victoria Parade","East Melbourne",3002,"Level 1, 100 Victoria Parade, East Melbourne, VIC, 3002, Australia",-37.8086358,144.97489420602,"Hospital"
"Victorian Gut Centre Bundoora","119 Plenty Road","Bundoora",3083,"119 Plenty Road, Bundoora, VIC, 3083, Australia",-37.692518,145.061682695398,"Hospital"
"Victorian Sleep Centre","695-697 Rathdowne Street","Carlton North",3054,"695-697 Rathdowne Street, Carlton North, VIC, 3054, Australia",-37.7885758,144.9718389,"Hospital"
"Vision Day Surgery Camberwell","27 Denmark Hill Road","Hawthorn East",3123,"27 Denmark Hill Road, Hawthorn East, VIC, 3123, Australia",-37.832532,145.055495,"Hospital"
"Vision Day Surgery Eastern","852-856 Whitehorse Road","Box Hill",3128,"852-856 Whitehorse Road, Box Hill, VIC, 3128, Australia",-37.81774695,145.119504942929,"Hospital"
"Vision Day Surgery Footscray","89 Paisley Street","Footscray",3011,"89 Paisley Street, Footscray, VIC, 3011, Australia",-37.800533,144.895122,"Hospital"
"Vision Laser St Kilda Road","Ground Floor, 600 St Kilda Rd","Melbourne",3000,"Ground Floor, 600 St Kilda Rd, Melbourne, VIC, 3000, Australia",-37.850726,144.980374,"Hospital"
"Wangaratta Private Hospital","134-150 Templeton Street","Wangaratta",3677,"134-150 Templeton Street, Wangaratta, VIC, 3677, Australia",-36.34890755,146.312536084471,"Hospital"
"Wantirna Health","251 Mountain Highway","Wantirna",3152,"251 Mountain Highway, Wantirna, VIC, 3152, Australia",-37.8483563,145.2250232,"Hospital"
"Warringal Private Hospital","216 Burgundy Street","Heidelberg",3084,"216 Burgundy Street, Heidelberg, VIC, 3084, Australia",-37.754818,145.060913351489,"Hospital"
"Waverley Endoscopy Suites","301 Blackburn Road","Mount Waverley",3149,"301 Blackburn Road, Mount Waverley, VIC, 3149, Australia",-37.8803221,145.1465914,"Hospital"
"Waverley Private Hospital","343-357 Blackburn Road","Mount Waverley",3149,"343-357 Blackburn Road, Mount Waverley, VIC, 3149, Australia",-37.88497,145.14524,"Hospital"
"Werribee Mercy Hospital","300 Princes Highway","Werribee",3030,"300 Princes Highway, Werribee, VIC, 3030, Australia",-37.885669,144.698951,"Hospital"
"West Gippsland Healthcare Group","41 Landsborough Street","Warragul",3820,"41 Landsborough Street, Warragul, VIC, 3820, Australia",-38.172445,145.927329,"Hospital"
"West Wimmera Health Service","49 Nelson Street","Nhill",3418,"49 Nelson Street, Nhill, VIC, 3418, Australia",-36.333878,141.655837,"Hospital"
"Western District Health Service","20 Foster Street","Hamilton",3300,"20 Foster Street, Hamilton, VIC, 3300, Australia",-37.737543,142.030184,"Hospital"
"Western District Health Service, Coleraine Campus","71 McLeod Street","Coleraine",3315,"71 McLeod Street, Coleraine, VIC, 3315, Australia",-37.599783,141.692466,"Hospital"
"Western Gastroenterology Services","30 Eleanor Street","Footscray",3011,"30 Eleanor Street, Footscray, VIC, 3011, Australia",-37.792018,144.885384,"Hospital"
"Western Health [Djerriwarrh Health Services]","Lot 4 Grant Street","Bacchus Marsh",3340,"Lot 4 Grant Street, Bacchus Marsh, VIC, 3340, Australia",-37.676082,144.435432,"Hospital"
"Western Private Hospital","1-9 Marion St","Footscray",3011,"1-9 Marion St, Footscray, VIC, 3011, Australia",-37.79319115,144.885874223357,"Hospital"
"Westpoint Endoscopy Day Hospital","243 Heaths Road","Werribee",3030,"243 Heaths Road, Werribee, VIC, 3030, Australia",-37.877485,144.679748,"Hospital"
"Williamstown Hospital","77b Railway Crescent","Williamstown",3016,"77b Railway Crescent, Williamstown, VIC, 3016, Australia",-37.862395,144.89156,"Hospital"
"Wimmera Health Care Group","83 Baillie Street","Horsham",3400,"83 Baillie Street, Horsham, VIC, 3400, Australia",-36.7118674,142.2092377,"Hospital"
"Windsor Private Hospital","20 The Avenue","Windsor",3181,"20 The Avenue, Windsor, VIC, 3181, Australia",-37.856085,144.998064,"Hospital"
"Yackandandah Bush Nursing Hospital Inc.","20 Isaacs Avenue","Yackandandah",3749,"20 Isaacs Avenue, Yackandandah, VIC, 3749, Australia",-36.3106458,146.84572931653,"Hospital"
"Yarra Ranges Health","25 Market Street","Lilydale",3140,"25 Market Street, Lilydale, VIC, 3140, Australia",-37.7565429,145.351376,"Hospital"
"Yarram and District Health Service","85 Commercial Road","Yarram",3971,"85 Commercial Road, Yarram, VIC, 3971, Australia",-38.55708255,146.678197336344,"Hospital"
"Yarrawonga Health","33 Piper Street","Yarrawonga",3730,"33 Piper Street, Yarrawonga, VIC, 3730, Australia",-36.011198,146.006833,"Hospital"
"Yea and District Memorial Hospital","45 Station Street","Yea",3717,"45 Station Street, Yea, VIC, 3717, Australia",-37.2133164,145.4303102,"Hospital"
