"formal_name","location_address","suburb","postcode","address","latitude","longitude","category"
"70 Lowe Street","70 LOWE Street","ARARAT","3377","70 LOWE Street, ARARAT, VIC, 3377, Australia",-37.277969,142.932994,"RACF"
"A. G. Eastwood Hostel","376 WARRIGAL Road","CHELTENHAM","3192","376 WARRIGAL Road, CHELTENHAM, VIC, 3192, Australia",-37.95856,145.076137,"RACF"
"Abberfield Aged Care Facility","376-380 BLUFF Road","SANDRINGHAM","3191","376-380 BLUFF Road, SANDRINGHAM, VIC, 3191, Australia",-37.948308,145.022019,"RACF"
"Aberlea","30 Shaw Street","MORTLAKE","3272","30 Shaw Street, MORTLAKE, VIC, 3272, Australia",-38.079223,142.810845,"RACF"
"AdventCare Whitehorse","163-165 Central Road","NUNAWADING","3131","163-165 Central Road, NUNAWADING, VIC, 3131, Australia",-37.8240741,145.169061302651,"RACF"
"AdventCare Yarra Ranges","5 WOODS POINT Road","WARBURTON","3799","5 WOODS POINT Road, WARBURTON, VIC, 3799, Australia",-37.752302,145.702477,"RACF"
"Alan David Lodge","382 TORQUAY Road","GROVEDALE","3216","382 TORQUAY Road, GROVEDALE, VIC, 3216, Australia",-38.215766,144.338887,"RACF"
"Albury Wodonga Health Residential Care Program","52 SYDNEY Road","BEECHWORTH","3747","52 SYDNEY Road, BEECHWORTH, VIC, 3747, Australia",-36.3490283,146.691611278947,"RACF"
"Alchera House","75 BRIDGE Street","KORUMBURRA","3950","75 BRIDGE Street, KORUMBURRA, VIC, 3950, Australia",-38.430385,145.82944,"RACF"
"Alcheringa Hostel","2-14 BOREE Drive","SWAN HILL","3585","2-14 BOREE Drive, SWAN HILL, VIC, 3585, Australia",-35.336707,143.533291,"RACF"
"Allambi Elderly Peoples Home","46 ANDERSON Street","DIMBOOLA","3414","46 ANDERSON Street, DIMBOOLA, VIC, 3414, Australia",-36.449137,142.025716,"RACF"
"Allan W Lockwood Special Care Hostel","6 SCHURMANN Street","NATIMUK","3409","6 SCHURMANN Street, NATIMUK, VIC, 3409, Australia",-36.7456058,141.937704758879,"RACF"
"Allanvale Private Nursing Home","38-40 ASCOT Street  South","ALTONA MEADOWS","3028","38-40 ASCOT Street  South, ALTONA MEADOWS, VIC, 3028, Australia",-37.8708283,144.763103976204,"RACF"
"Allawah Special Care Hostel","42 HUME Street","YARRAWONGA","3730","42 HUME Street, YARRAWONGA, VIC, 3730, Australia",-36.012398,146.006146,"RACF"
"Alpine Health Multi Purpose Service - Mount Beauty","2-8 HOLLONDS Street","MOUNT BEAUTY","3699","2-8 HOLLONDS Street, MOUNT BEAUTY, VIC, 3699, Australia",-36.743151,147.169288,"RACF"
"Alpine Health Multi-Purpose Service - Bright","26-32 COBDEN Street","BRIGHT","3741","26-32 COBDEN Street, BRIGHT, VIC, 3741, Australia",-36.731383,146.964692,"RACF"
"Alpine Health Multi-Purpose Service - Myrtleford","30 O'Donnell Avenue","MYRTLEFORD","3737","30 O'Donnell Avenue, MYRTLEFORD, VIC, 3737, Australia",-36.55459,146.72753,"RACF"
"Altona Gardens Care Community","28-30 RYMILL Court","ALTONA NORTH","3025","28-30 RYMILL Court, ALTONA NORTH, VIC, 3025, Australia",-37.832776,144.839428,"RACF"
"Andrews House","42 SCHOOL Road","TRAFALGAR","3824","42 SCHOOL Road, TRAFALGAR, VIC, 3824, Australia",-38.213753,146.150989,"RACF"
"Anzac Lodge Nursing Home","2-12 ANZAC Avenue","COBURG NORTH","3058","2-12 ANZAC Avenue, COBURG NORTH, VIC, 3058, Australia",-37.722571,144.964741,"RACF"
"Arcare Balnarring","51 BALNARRING Road","BALNARRING","3926","51 BALNARRING Road, BALNARRING, VIC, 3926, Australia",-38.36986,145.123411,"RACF"
"Arcare Brighton","58 COCHRANE Street","BRIGHTON","3186","58 COCHRANE Street, BRIGHTON, VIC, 3186, Australia",-37.900376,144.999025,"RACF"
"Arcare Burnside","2 NICOL Avenue","BURNSIDE","3023","2 NICOL Avenue, BURNSIDE, VIC, 3023, Australia",-37.756885,144.750313,"RACF"
"Arcare Carnegie","47 ROSANNA Street","CARNEGIE","3163","47 ROSANNA Street, CARNEGIE, VIC, 3163, Australia",-37.899079,145.061587,"RACF"
"Arcare Caulfield","141 KOOYONG Road","CAULFIELD NORTH","3161","141 KOOYONG Road, CAULFIELD NORTH, VIC, 3161, Australia",-37.873833,145.017108,"RACF"
"Arcare Cheltenham","161A CENTRE DANDENONG Road","CHELTENHAM","3192","161A CENTRE DANDENONG Road, CHELTENHAM, VIC, 3192, Australia",-37.967672,145.076273,"RACF"
"Arcare Civic Manor","7 CIVIC Drive","EPPING","3076","7 CIVIC Drive, EPPING, VIC, 3076, Australia",-37.647983,145.065491,"RACF"
"Arcare Essendon","33-35 RALEIGH Street","ESSENDON","3040","33-35 RALEIGH Street, ESSENDON, VIC, 3040, Australia",-37.753646,144.922419,"RACF"
"Arcare Hillside","50 COMMUNITY Hub","SYDENHAM","3037","50 COMMUNITY Hub, SYDENHAM, VIC, 3037, Australia",-37.70124505,144.758261987061,"RACF"
"Arcare Keysborough","85 STANLEY Road","KEYSBOROUGH","3173","85 STANLEY Road, KEYSBOROUGH, VIC, 3173, Australia",-38.001761,145.167775,"RACF"
"Arcare Knox","478 BURWOOD Highway","WANTIRNA SOUTH","3152","478 BURWOOD Highway, WANTIRNA SOUTH, VIC, 3152, Australia",-37.865619,145.224832,"RACF"
"Arcare Maidstone","31 HAMPSTEAD Road","MAIDSTONE","3012","31 HAMPSTEAD Road, MAIDSTONE, VIC, 3012, Australia",-37.77757405,144.875576657755,"RACF"
"Arcare Malvern East","1997-2005 MALVERN Road","MALVERN EAST","3145","1997-2005 MALVERN Road, MALVERN EAST, VIC, 3145, Australia",-37.871841,145.063936,"RACF"
"Arcare Nirvana Avenue","408 WAVERLEY Road","MALVERN EAST","3145","408 WAVERLEY Road, MALVERN EAST, VIC, 3145, Australia",-37.878129,145.064596,"RACF"
"Arcare Parkview Malvern East","1287-1291 DANDENONG Road","MALVERN EAST","3145","1287-1291 DANDENONG Road, MALVERN EAST, VIC, 3145, Australia",-37.885022,145.073385,"RACF"
"Arcare Point Lonsdale","5 KNOWLES Grove","POINT LONSDALE","3225","5 KNOWLES Grove, POINT LONSDALE, VIC, 3225, Australia",-38.269507,144.60949,"RACF"
"Arcare Portarlingon","80 WILLIS Street","PORTARLINGTON","3223","80 WILLIS Street, PORTARLINGTON, VIC, 3223, Australia",-38.119557,144.657183,"RACF"
"Arcare Reservoir","2 Gremel Road","RESERVOIR","3073","2 Gremel Road, RESERVOIR, VIC, 3073, Australia",-37.725794,145.028806,"RACF"
"Arcare Surrey Hills","18 FLORENCE Road","SURREY HILLS","3127","18 FLORENCE Road, SURREY HILLS, VIC, 3127, Australia",-37.828286,145.102337,"RACF"
"Arcare Sydenham","31-51 TRICKEY Avenue","SYDENHAM","3037","31-51 TRICKEY Avenue, SYDENHAM, VIC, 3037, Australia",-37.697084,144.767234,"RACF"
"Arcare Templestowe","75 KING Street","TEMPLESTOWE","3106","75 KING Street, TEMPLESTOWE, VIC, 3106, Australia",-37.773786,145.154221,"RACF"
"Arcare Waterview","251-259 WATERVIEW Boulevard","CRAIGIEBURN","3064","251-259 WATERVIEW Boulevard, CRAIGIEBURN, VIC, 3064, Australia",-37.58408,144.906479,"RACF"
"Archie Gray Nursing Home Unit","1 ROACHE Street","KANIVA","3419","1 ROACHE Street, KANIVA, VIC, 3419, Australia",-36.381186,141.246061,"RACF"
"Arpad Aged Care","9 Garrisson Grove","WANTIRNA","3152","9 Garrisson Grove, WANTIRNA, VIC, 3152, Australia",-37.8465268,145.2285804,"RACF"
"Ashleigh House Hostel","20-24 BERGEN Crescent","SALE","3850","20-24 BERGEN Crescent, SALE, VIC, 3850, Australia",-38.105225,147.085276,"RACF"
"Assisi Aged Care","230 ROSANNA Road","ROSANNA","3084","230 ROSANNA Road, ROSANNA, VIC, 3084, Australia",-37.7407301,145.0740092,"RACF"
"Auburn House","98 Camberwell Road","HAWTHORN EAST","3123","98 Camberwell Road, HAWTHORN EAST, VIC, 3123, Australia",-37.827452,145.051907,"RACF"
"Aurrum Brunswick","17 EGGINTON Street","BRUNSWICK WEST","3055","17 EGGINTON Street, BRUNSWICK WEST, VIC, 3055, Australia",-37.76006535,144.93886574756,"RACF"
"Aurrum Healesville","27 SMITH Street","HEALESVILLE","3777","27 SMITH Street, HEALESVILLE, VIC, 3777, Australia",-37.660788,145.508788,"RACF"
"Aurrum Plenty","321-327 DIAMOND CREEK Road","PLENTY","3090","321-327 DIAMOND CREEK Road, PLENTY, VIC, 3090, Australia",-37.67715,145.125321,"RACF"
"Aurrum Reservoir","1 ABERDEEN Street","RESERVOIR","3073","1 ABERDEEN Street, RESERVOIR, VIC, 3073, Australia",-37.7033717,145.018038192456,"RACF"
"Australian Unity Campbell Place Aged Care","129 Coleman Parade","GLEN WAVERLEY","3150","129 Coleman Parade, GLEN WAVERLEY, VIC, 3150, Australia",-37.8790252,145.1591299,"RACF"
"Australian Unity Peninsula Grange Aged Care","2 BOOKER Avenue","MORNINGTON","3931","2 BOOKER Avenue, MORNINGTON, VIC, 3931, Australia",-38.228812,145.069164,"RACF"
"Australian Unity Racecourse Grange Aged Care","428-430 Racecourse Road","MORNINGTON","3931","428-430 Racecourse Road, MORNINGTON, VIC, 3931, Australia",-38.2274018,145.072599041732,"RACF"
"Australian Unity Rathdowne Place Aged Care","497-513 RATHDOWNE Street","CARLTON","3053","497-513 RATHDOWNE Street, CARLTON, VIC, 3053, Australia",-37.7936601,144.970761935383,"RACF"
"Australian Unity Victoria Grange Aged Care","502-514 Burwood Highway","VERMONT SOUTH","3133","502-514 Burwood Highway, VERMONT SOUTH, VIC, 3133, Australia",-37.8572464,145.1852875,"RACF"
"Avoca Hostel","10 TEMPLETON Street","AVOCA","3467","10 TEMPLETON Street, AVOCA, VIC, 3467, Australia",-37.092254,143.467742,"RACF"
"Avonlea Aged Care","3-7 PATTY Street","MENTONE","3194","3-7 PATTY Street, MENTONE, VIC, 3194, Australia",-37.976701,145.054613,"RACF"
"Avonlea Hostel","68-72 MACPHERSON Street","NHILL","3418","68-72 MACPHERSON Street, NHILL, VIC, 3418, Australia",-36.335072,141.655671,"RACF"
"Bairnsdale Parklands Care Community","79 HARNHAM Drive","BAIRNSDALE","3875","79 HARNHAM Drive, BAIRNSDALE, VIC, 3875, Australia",-37.837567,147.596028,"RACF"
"Bairnsdale Regional Health Service ( Maddocks Gardens)","125 MCKEAN Street","BAIRNSDALE","3875","125 MCKEAN Street, BAIRNSDALE, VIC, 3875, Australia",-37.8322163,147.6069827,"RACF"
"Banawah NCN Health Nathalia","36-38 Mcdonell Street","NATHALIA","3638","36-38 Mcdonell Street, NATHALIA, VIC, 3638, Australia",-36.0574497,145.2022936,"RACF"
"Banfields Aged Care","192 THOMPSON Avenue","COWES","3922","192 THOMPSON Avenue, COWES, VIC, 3922, Australia",-38.45972025,145.236760402485,"RACF"
"Banksia Lodge Residential Aged Care Service","15 Waranga Drive","KIALLA","3631","15 Waranga Drive, KIALLA, VIC, 3631, Australia",-36.417317,145.399181,"RACF"
"Baptcare Abbey Gardens Community","15 TARWIN Street","WARRAGUL","3820","15 TARWIN Street, WARRAGUL, VIC, 3820, Australia",-38.151735,145.919507,"RACF"
"Baptcare Amberlea Community","5 PEARSON Road","DROUIN","3818","5 PEARSON Road, DROUIN, VIC, 3818, Australia",-38.138872,145.85346,"RACF"
"Baptcare Brookview Community","130 DIMBOOLA Road","WESTMEADOWS","3049","130 DIMBOOLA Road, WESTMEADOWS, VIC, 3049, Australia",-37.673925,144.910137,"RACF"
"Baptcare Coasthaven Community","45 ROBIN Avenue","NORLANE","3214","45 ROBIN Avenue, NORLANE, VIC, 3214, Australia",-38.0869097,144.351413404231,"RACF"
"Baptcare Hedley Sutton Community","19 Canterbury Road","CAMBERWELL","3124","19 Canterbury Road, CAMBERWELL, VIC, 3124, Australia",-37.82121065,145.062917404361,"RACF"
"Baptcare Heritage Manor Community","147-163 MARYVALE Road","MORWELL","3840","147-163 MARYVALE Road, MORWELL, VIC, 3840, Australia",-38.221356,146.415825,"RACF"
"Baptcare Karana Community","55 Walpole Street","KEW","3101","55 Walpole Street, KEW, VIC, 3101, Australia",-37.801579,145.032171,"RACF"
"Baptcare Northaven Community","84-86 SHADFORTH Street","KERANG","3579","84-86 SHADFORTH Street, KERANG, VIC, 3579, Australia",-35.726308,143.915704,"RACF"
"Baptcare Peninsula View Community","24-28 MOOROODUC Highway","FRANKSTON SOUTH","3199","24-28 MOOROODUC Highway, FRANKSTON SOUTH, VIC, 3199, Australia",-38.1852562,145.1401289,"RACF"
"Baptcare St Hilary's Community","16 ELGIN Street","MORWELL","3840","16 ELGIN Street, MORWELL, VIC, 3840, Australia",-38.239031,146.391074,"RACF"
"Baptcare Strathalan Community","50 Braidhill Road","MACLEOD","3085","50 Braidhill Road, MACLEOD, VIC, 3085, Australia",-37.728019,145.077097,"RACF"
"Baptcare The Orchards Community","107 Andersons Creek Road","DONCASTER EAST","3109","107 Andersons Creek Road, DONCASTER EAST, VIC, 3109, Australia",-37.7667311,145.171310074073,"RACF"
"Baptcare Wattle Grove Community","51 PINETREE Crescent","LALOR","3075","51 PINETREE Crescent, LALOR, VIC, 3075, Australia",-37.666816,144.995575,"RACF"
"Baptcare Westhaven Community","50 PICKETT Street","FOOTSCRAY","3011","50 PICKETT Street, FOOTSCRAY, VIC, 3011, Australia",-37.80082825,144.894350756394,"RACF"
"Baptcare Wyndham Lodge Community","120 SYNNOT Street","WERRIBEE","3030","120 SYNNOT Street, WERRIBEE, VIC, 3030, Australia",-37.906849,144.653487,"RACF"
"Barwo Homestead","8 FEDERATION Street","NATHALIA","3638","8 FEDERATION Street, NATHALIA, VIC, 3638, Australia",-36.056119,145.199376,"RACF"
"Bayside Aged Care","5 MCDONALD Street","MORDIALLOC","3195","5 MCDONALD Street, MORDIALLOC, VIC, 3195, Australia",-38.0047654,145.087198642934,"RACF"
"Beaufort Hostel","1-3 Burton Street","BEAUFORT","3373","1-3 Burton Street, BEAUFORT, VIC, 3373, Australia",-37.4311684,143.3817798,"RACF"
"Beaufort Nursing Home","2 HAVELOCK Street","BEAUFORT","3373","2 HAVELOCK Street, BEAUFORT, VIC, 3373, Australia",-37.428427,143.37966,"RACF"
"Belvedere Aged Care","41-43 FINTONIA Road","NOBLE PARK","3174","41-43 FINTONIA Road, NOBLE PARK, VIC, 3174, Australia",-37.961968,145.18576,"RACF"
"Benetas Broughton Hall","2 Berwick Street","CAMBERWELL","3124","2 Berwick Street, CAMBERWELL, VIC, 3124, Australia",-37.824297,145.060194,"RACF"
"Benetas Clarinda on the Park","21-25 Inverness Street","CLARINDA","3169","21-25 Inverness Street, CLARINDA, VIC, 3169, Australia",-37.9314016,145.1070477,"RACF"
"Benetas Colton Close","1-19 YORK Street","GLENROY","3046","1-19 YORK Street, GLENROY, VIC, 3046, Australia",-37.705362,144.911281,"RACF"
"Benetas Corowa Court","752 ESPLANADE","MORNINGTON","3931","752 ESPLANADE, MORNINGTON, VIC, 3931, Australia",-38.221717,145.032577,"RACF"
"Benetas Dalkeith Gardens","49-53 Hazelwood Road","TRARALGON","3844","49-53 Hazelwood Road, TRARALGON, VIC, 3844, Australia",-38.20916,146.52067,"RACF"
"Benetas Gladswood Lodge","15 WAXMAN Parade","BRUNSWICK WEST","3055","15 WAXMAN Parade, BRUNSWICK WEST, VIC, 3055, Australia",-37.758684,144.934544,"RACF"
"Benetas Lovell House","389 ALMA Road","CAULFIELD NORTH","3161","389 ALMA Road, CAULFIELD NORTH, VIC, 3161, Australia",-37.865574,145.023297,"RACF"
"Benetas St George's","13-19 HOWARD Street","ALTONA MEADOWS","3028","13-19 HOWARD Street, ALTONA MEADOWS, VIC, 3028, Australia",-37.880077,144.781138,"RACF"
"Benetas St Laurence Court Eaglehawk","112 UPPER CALIFORNIA GULLY Road","CALIFORNIA GULLY","3556","112 UPPER CALIFORNIA GULLY Road, CALIFORNIA GULLY, VIC, 3556, Australia",-36.735274,144.254028,"RACF"
"Benetas St Laurence Court Kangaroo Flat","8 WESLEY Street","KANGAROO FLAT","3555","8 WESLEY Street, KANGAROO FLAT, VIC, 3555, Australia",-36.802222,144.240681,"RACF"
"Benetas St Paul's Terrace","2B TOWERHILL Road","FRANKSTON","3199","2B TOWERHILL Road, FRANKSTON, VIC, 3199, Australia",-38.162984,145.135638,"RACF"
"Benetas The Views at Heidelberg","2-6 Lower Plenty Road","HEIDELBERG","3084","2-6 Lower Plenty Road, HEIDELBERG, VIC, 3084, Australia",-37.746814,145.058489,"RACF"
"Benlynne Park PNH","2 KILLARA Street","SUNSHINE WEST","3020","2 KILLARA Street, SUNSHINE WEST, VIC, 3020, Australia",-37.786523,144.823308,"RACF"
"Bentons Lodge - Residential Aged Service","197 BENTONS Road","MORNINGTON","3931","197 BENTONS Road, MORNINGTON, VIC, 3931, Australia",-38.2472913,145.0546945,"RACF"
"Berengarra","283 COTHAM Road","KEW","3101","283 COTHAM Road, KEW, VIC, 3101, Australia",-37.8084292,145.052732378461,"RACF"
"Bethel Aged Care","600 PLENTY Road","MILL PARK","3082","600 PLENTY Road, MILL PARK, VIC, 3082, Australia",-37.655287,145.082151,"RACF"
"Bill Crawford Lodge","1101 DANA Street","BALLARAT","3350","1101 DANA Street, BALLARAT, VIC, 3350, Australia",-37.563267,143.84963,"RACF"
"Bindaree Retirement Centre","86 HIGHETT Street","MANSFIELD","3722","86 HIGHETT Street, MANSFIELD, VIC, 3722, Australia",-37.060641,146.086768,"RACF"
"Birchip Nursing Home","17 TAVERNER Street","BIRCHIP","3483","17 TAVERNER Street, BIRCHIP, VIC, 3483, Australia",-35.980234,142.916264,"RACF"
"BlueCross Ashby","25 ASHFORD Street","TEMPLESTOWE LOWER","3107","25 ASHFORD Street, TEMPLESTOWE LOWER, VIC, 3107, Australia",-37.761337,145.120081,"RACF"
"BlueCross Autumdale","13 EAGLAND Road","CHELTENHAM","3192","13 EAGLAND Road, CHELTENHAM, VIC, 3192, Australia",-37.971397,145.075935,"RACF"
"BlueCross Baradine","17-19 Baradine Road","MOOROOLBARK","3138","17-19 Baradine Road, MOOROOLBARK, VIC, 3138, Australia",-37.781228,145.317486,"RACF"
"BlueCross Box Hill","40 Dorking Road","BOX HILL","3128","40 Dorking Road, BOX HILL, VIC, 3128, Australia",-37.816395,145.131322,"RACF"
"BlueCross Broughtonlea","9-17 BROUGHTON Road","SURREY HILLS","3127","9-17 BROUGHTON Road, SURREY HILLS, VIC, 3127, Australia",-37.827812,145.104246,"RACF"
"BlueCross Chelsea Manor","7-11 BEARDSWORTH Avenue","CHELSEA","3196","7-11 BEARDSWORTH Avenue, CHELSEA, VIC, 3196, Australia",-38.048987,145.122954,"RACF"
"BlueCross Cresthaven","235 WAVERLEY Road","MALVERN EAST","3145","235 WAVERLEY Road, MALVERN EAST, VIC, 3145, Australia",-37.878212,145.066606,"RACF"
"BlueCross Darnlee","33 LANSELL Road","TOORAK","3142","33 LANSELL Road, TOORAK, VIC, 3142, Australia",-37.838167,145.016188,"RACF"
"BlueCross Elly Kay","45-51 ELLIOT Street","MORDIALLOC","3195","45-51 ELLIOT Street, MORDIALLOC, VIC, 3195, Australia",-37.9967798,145.0952934,"RACF"
"BlueCross Gardenia","87 ARGYLE Avenue","CHELSEA","3196","87 ARGYLE Avenue, CHELSEA, VIC, 3196, Australia",-38.05192035,145.128891572987,"RACF"
"BlueCross Glengowrie","54 BOX FOREST Road","GLENROY","3046","54 BOX FOREST Road, GLENROY, VIC, 3046, Australia",-37.70384,144.955343,"RACF"
"BlueCross Grossard Court","1A LESLIE Avenue","COWES","3922","1A LESLIE Avenue, COWES, VIC, 3922, Australia",-38.4600065,145.2328124,"RACF"
"BlueCross Hansworth","181 HANSWORTH Street","MULGRAVE","3170","181 HANSWORTH Street, MULGRAVE, VIC, 3170, Australia",-37.933333,145.188393,"RACF"
"BlueCross Highgrove","79 Stevenson Street","KEW","3101","79 Stevenson Street, KEW, VIC, 3101, Australia",-37.809234,145.017579,"RACF"
"BlueCross Hilltop","10 HOTHAM Street","PRESTON","3072","10 HOTHAM Street, PRESTON, VIC, 3072, Australia",-37.751694,145.006795,"RACF"
"BlueCross Ivanhoe","250-260 Waterdale Road","IVANHOE","3079","250-260 Waterdale Road, IVANHOE, VIC, 3079, Australia",-37.758326,145.044563,"RACF"
"BlueCross Karinya Grove","3 ABERDEEN Road","SANDRINGHAM","3191","3 ABERDEEN Road, SANDRINGHAM, VIC, 3191, Australia",-37.9554361,145.0287321,"RACF"
"BlueCross Livingstone Gardens","39 Livingstone Road","VERMONT SOUTH","3133","39 Livingstone Road, VERMONT SOUTH, VIC, 3133, Australia",-37.8552256,145.1801313,"RACF"
"BlueCross Monterey","858 PASCOE VALE Road","GLENROY","3046","858 PASCOE VALE Road, GLENROY, VIC, 3046, Australia",-37.70166,144.915342,"RACF"
"BlueCross Oakleigh","1055 Centre Road","OAKLEIGH SOUTH","3167","1055 Centre Road, OAKLEIGH SOUTH, VIC, 3167, Australia",-37.92419055,145.086678950039,"RACF"
"BlueCross Riverlea","57 INTERVALE Drive","AVONDALE HEIGHTS","3034","57 INTERVALE Drive, AVONDALE HEIGHTS, VIC, 3034, Australia",-37.75275,144.8539,"RACF"
"BlueCross Scotchmans Creek","444-454 WAVERLEY Road","MOUNT WAVERLEY","3149","444-454 WAVERLEY Road, MOUNT WAVERLEY, VIC, 3149, Australia",-37.885791,145.135398,"RACF"
"BlueCross Sheridan Hall Brighton","10 Marion Street","BRIGHTON","3186","10 Marion Street, BRIGHTON, VIC, 3186, Australia",-37.9077261,145.0027298,"RACF"
"BlueCross Sheridan Hall Caulfield","6-8 Northcote Avenue","CAULFIELD NORTH","3161","6-8 Northcote Avenue, CAULFIELD NORTH, VIC, 3161, Australia",-37.876694,145.024453,"RACF"
"BlueCross Silverwood","105 PORTER Street","TEMPLESTOWE","3106","105 PORTER Street, TEMPLESTOWE, VIC, 3106, Australia",-37.752545,145.136415,"RACF"
"BlueCross Tarralla","9 Jackson Street","CROYDON","3136","9 Jackson Street, CROYDON, VIC, 3136, Australia",-37.794469,145.287713,"RACF"
"BlueCross The Boulevard","70 HEATHS Court","MILL PARK","3082","70 HEATHS Court, MILL PARK, VIC, 3082, Australia",-37.657209,145.082485,"RACF"
"BlueCross The Gables","629 RIVERSDALE Road","CAMBERWELL","3124","629 RIVERSDALE Road, CAMBERWELL, VIC, 3124, Australia",-37.8314016,145.067235728882,"RACF"
"BlueCross The Mews","2a Warburton Road","CAMBERWELL EAST","3126","2a Warburton Road, CAMBERWELL EAST, VIC, 3126, Australia",-37.826263,145.069032633333,"RACF"
"BlueCross Western Gardens","40 ANDERSON Road","SUNSHINE","3020","40 ANDERSON Road, SUNSHINE, VIC, 3020, Australia",-37.792124,144.827732,"RACF"
"BlueCross Westgarth","121-127 Westgarth Street","NORTHCOTE","3070","121-127 Westgarth Street, NORTHCOTE, VIC, 3070, Australia",-37.781697,145.0031178,"RACF"
"BlueCross Willowmeade","70 KILMORE-LANCEFIELD Road","KILMORE","3764","70 KILMORE-LANCEFIELD Road, KILMORE, VIC, 3764, Australia",-37.29517,144.945046,"RACF"
"Bolga Court Hostel","1 Lakeside Drive","TALLANGATTA","3700","1 Lakeside Drive, TALLANGATTA, VIC, 3700, Australia",-36.2130539,147.1816464,"RACF"
"Boort District Health Hostel","1 Kiniry Street","BOORT","3537","1 Kiniry Street, BOORT, VIC, 3537, Australia",-36.114281,143.7275701,"RACF"
"Boort District Health Nursing Home","5 KINIRY Street","BOORT","3537","5 KINIRY Street, BOORT, VIC, 3537, Australia",-36.115169,143.727196,"RACF"
"Boronia Residential Aged Care","7 COOGEE Street","BORONIA","3155","7 COOGEE Street, BORONIA, VIC, 3155, Australia",-37.853652,145.284668,"RACF"
"Boyne Russell House","184-186 VICTORIA Street","BRUNSWICK","3056","184-186 VICTORIA Street, BRUNSWICK, VIC, 3056, Australia",-37.767964,144.969508,"RACF"
"BRENTWOOD AGED CARE","299 LATROBE Terrace","GEELONG","3220","299 LATROBE Terrace, GEELONG, VIC, 3220, Australia",-38.152132,144.352073,"RACF"
"Brimlea Aged Care","21 RAILWAY Parade","MURRUMBEENA","3163","21 RAILWAY Parade, MURRUMBEENA, VIC, 3163, Australia",-37.892032,145.070509,"RACF"
"BSL Aged Care - Clifton Hill","160 GOLD Street","CLIFTON HILL","3068","160 GOLD Street, CLIFTON HILL, VIC, 3068, Australia",-37.7925234,144.9904359,"RACF"
"Buckland House Nursing Home","1 HIGHETT Street","MANSFIELD","3722","1 HIGHETT Street, MANSFIELD, VIC, 3722, Australia",-37.04958,146.088198,"RACF"
"Bupa Ballarat","305 SMYTHES Road","DELACOMBE","3356","305 SMYTHES Road, DELACOMBE, VIC, 3356, Australia",-37.5915698,143.80916961895,"RACF"
"Bupa Barrabool","55 BARRABOOL Road","BELMONT","3216","55 BARRABOOL Road, BELMONT, VIC, 3216, Australia",-38.166073,144.336708,"RACF"
"Bupa Bellarine Lakes","402 Bellarine Highway","MOOLAP","3224","402 Bellarine Highway, MOOLAP, VIC, 3224, Australia",-38.180513,144.426757,"RACF"
"Bupa Bendigo","208 HOLDSWORTH Road","BENDIGO","3550","208 HOLDSWORTH Road, BENDIGO, VIC, 3550, Australia",-36.73491845,144.280886048076,"RACF"
"Bupa Berwick","359 NARRE WARREN NORTH Road","NARRE WARREN NORTH","3804","359 NARRE WARREN NORTH Road, NARRE WARREN NORTH, VIC, 3804, Australia",-37.99446565,145.312279724785,"RACF"
"Bupa Bonbeach","53 BROADWAY","BONBEACH","3196","53 BROADWAY, BONBEACH, VIC, 3196, Australia",-38.057779,145.126215,"RACF"
"Bupa Caulfield","349-351A NORTH Road","CAULFIELD SOUTH","3162","349-351A NORTH Road, CAULFIELD SOUTH, VIC, 3162, Australia",-37.902185,145.027978,"RACF"
"Bupa Clayton","12 BURTON Avenue","CLAYTON","3168","12 BURTON Avenue, CLAYTON, VIC, 3168, Australia",-37.9274339,145.116160055117,"RACF"
"Bupa Coburg","24 SUTHERLAND Street","COBURG","3058","24 SUTHERLAND Street, COBURG, VIC, 3058, Australia",-37.73891265,144.961483783193,"RACF"
"Bupa Croydon","124 MAROONDAH Highway","CROYDON","3136","124 MAROONDAH Highway, CROYDON, VIC, 3136, Australia",-37.787959,145.273192,"RACF"
"Bupa Donvale","296-304 Springvale Road","DONVALE","3111","296-304 Springvale Road, DONVALE, VIC, 3111, Australia",-37.791954,145.179707,"RACF"
"Bupa Eastwood","55 TIMBARRA Drive","BAIRNSDALE","3875","55 TIMBARRA Drive, BAIRNSDALE, VIC, 3875, Australia",-37.811847,147.638274,"RACF"
"Bupa Echuca","7 FEHRING Lane","ECHUCA","3564","7 FEHRING Lane, ECHUCA, VIC, 3564, Australia",-36.155002,144.732398,"RACF"
"Bupa Greensborough","264 DIAMOND CREEK Road","GREENSBOROUGH","3088","264 DIAMOND CREEK Road, GREENSBOROUGH, VIC, 3088, Australia",-37.681084,145.122107,"RACF"
"Bupa Kyneton","2 EDGECOMBE Street","KYNETON","3444","2 EDGECOMBE Street, KYNETON, VIC, 3444, Australia",-37.2571861,144.462750606291,"RACF"
"Bupa Mildura","514 DEAKIN Avenue","MILDURA","3500","514 DEAKIN Avenue, MILDURA, VIC, 3500, Australia",-34.209356,142.133849,"RACF"
"Bupa Portland","83 WELLINGTON Road","PORTLAND","3305","83 WELLINGTON Road, PORTLAND, VIC, 3305, Australia",-38.36341,141.613963,"RACF"
"Bupa South Morang","18-22 MCGLYNN Avenue","SOUTH MORANG","3752","18-22 MCGLYNN Avenue, SOUTH MORANG, VIC, 3752, Australia",-37.654648,145.088147,"RACF"
"Bupa Templestowe","222-228 Serpells Road","TEMPLESTOWE","3106","222-228 Serpells Road, TEMPLESTOWE, VIC, 3106, Australia",-37.767209,145.153398,"RACF"
"Bupa Traralgon","96 PARK Lane","TRARALGON","3844","96 PARK Lane, TRARALGON, VIC, 3844, Australia",-38.179551,146.550672,"RACF"
"Bupa Windsor","102-104 UNION Street","WINDSOR","3181","102-104 UNION Street, WINDSOR, VIC, 3181, Australia",-37.854294,144.9887,"RACF"
"Bupa Wodonga","11-19 Melrose Drive","WODONGA","3690","11-19 Melrose Drive, WODONGA, VIC, 3690, Australia",-36.11629805,146.86693586685,"RACF"
"Bupa Woodend","2 SULLIVANS Road","WOODEND","3442","2 SULLIVANS Road, WOODEND, VIC, 3442, Australia",-37.363039,144.535484,"RACF"
"Cabrini Residential Care-Ashwood","54 Queens Parade","ASHWOOD","3147","54 Queens Parade, ASHWOOD, VIC, 3147, Australia",-37.870302,145.09537,"RACF"
"Caladenia Nursing Home","Rutledge Street","KILMORE","3764","Rutledge Street, KILMORE, VIC, 3764, Australia",-37.3006388,144.954095,"RACF"
"Calvary Balmoral Grove","24-34 SMITH Street","GROVEDALE","3216","24-34 SMITH Street, GROVEDALE, VIC, 3216, Australia",-38.20219835,144.344360763783,"RACF"
"Calvary Barongarook Gardens","8-32 Murray Street","COLAC","3250","8-32 Murray Street, COLAC, VIC, 3250, Australia",-38.338768,143.594617,"RACF"
"Calvary Bayview","1295 FRANKSTON-DANDENONG Road","CARRUM DOWNS","3201","1295 FRANKSTON-DANDENONG Road, CARRUM DOWNS, VIC, 3201, Australia",-38.102156,145.17097,"RACF"
"Calvary Bonbeach","440 STATION Street","BONBEACH","3196","440 STATION Street, BONBEACH, VIC, 3196, Australia",-38.066862,145.120718,"RACF"
"Calvary Capel Sands","8-16 CAPEL Avenue","CAPEL SOUND","3940","8-16 CAPEL Avenue, CAPEL SOUND, VIC, 3940, Australia",-38.364564,144.876758,"RACF"
"Calvary Central Park","101 PUNT Road","WINDSOR","3181","101 PUNT Road, WINDSOR, VIC, 3181, Australia",-37.85162705,144.983197298981,"RACF"
"Calvary Cordelia Grove","5 WEIR Street","ANGLESEA","3230","5 WEIR Street, ANGLESEA, VIC, 3230, Australia",-38.405384,144.179573,"RACF"
"Calvary Elanora","7 MAIR Street","BRIGHTON","3186","7 MAIR Street, BRIGHTON, VIC, 3186, Australia",-37.92966695,144.99280198459,"RACF"
"Calvary Elouera","6-11 KOORINGA Place","TORQUAY","3228","6-11 KOORINGA Place, TORQUAY, VIC, 3228, Australia",-38.324428,144.315579,"RACF"
"Calvary George Vowell","1 Cobb Road","MOUNT ELIZA","3930","1 Cobb Road, MOUNT ELIZA, VIC, 3930, Australia",-38.20778,145.0746637,"RACF"
"Calvary Goonawarra","19-25 Anderson Road","SUNBURY","3429","19-25 Anderson Road, SUNBURY, VIC, 3429, Australia",-37.5771609,144.719114,"RACF"
"Calvary Hallam","47-49 BELGRAVE-HALLAM Road","HALLAM","3803","47-49 BELGRAVE-HALLAM Road, HALLAM, VIC, 3803, Australia",-37.999997,145.274304,"RACF"
"Calvary Kelaston","2-4 PARK Street","WENDOUREE","3355","2-4 PARK Street, WENDOUREE, VIC, 3355, Australia",-37.536398,143.825683,"RACF"
"Calvary Kingston Gardens","173-213 Clarke Road","SPRINGVALE SOUTH","3172","173-213 Clarke Road, SPRINGVALE SOUTH, VIC, 3172, Australia",-37.974639,145.144719,"RACF"
"Calvary Kirralee",NA,"BALLARAT","3350","NA, BALLARAT, VIC, 3350, Australia",-37.62363775,143.876614805251,"RACF"
"Calvary Lakes Entrance","23 Alexandra Avenue","KALIMNA","3909","23 Alexandra Avenue, KALIMNA, VIC, 3909, Australia",-37.876663,147.963106,"RACF"
"Calvary Lower Plenty Garden Views","390 MAIN Road","LOWER PLENTY","3093","390 MAIN Road, LOWER PLENTY, VIC, 3093, Australia",-37.7304465,145.1302421,"RACF"
"Calvary Millward","31 Blackburn Road","DONCASTER EAST","3109","31 Blackburn Road, DONCASTER EAST, VIC, 3109, Australia",-37.799049,145.159765,"RACF"
"Calvary Mirridong","92-100 MCIVOR Road","BENDIGO","3550","92-100 MCIVOR Road, BENDIGO, VIC, 3550, Australia",-36.758691,144.29888,"RACF"
"Calvary Narracan Gardens","17 AMAROO Way","NEWBOROUGH","3825","17 AMAROO Way, NEWBOROUGH, VIC, 3825, Australia",-38.17686,146.275599,"RACF"
"Calvary Roccoco","355-357 Wilsons Road","ST ALBANS PARK","3219","355-357 Wilsons Road, ST ALBANS PARK, VIC, 3219, Australia",-38.19077,144.387904,"RACF"
"Calvary Rosanna Views","269-271 Lower Plenty Road","ROSANNA","3084","269-271 Lower Plenty Road, ROSANNA, VIC, 3084, Australia",-37.736694,145.075274,"RACF"
"Calvary Rye Sands","36-40 Weir Street","RYE","3941","36-40 Weir Street, RYE, VIC, 3941, Australia",-38.374413,144.827073,"RACF"
"Calvary Sandhurst","20 HERBERT Road","CARRUM DOWNS","3201","20 HERBERT Road, CARRUM DOWNS, VIC, 3201, Australia",-38.090864,145.185863,"RACF"
"Calvary Scottvale","71 SCOTT Street","DANDENONG","3175","71 SCOTT Street, DANDENONG, VIC, 3175, Australia",-37.9862297,145.2056244,"RACF"
"Calvary Springvale","340-344 Springvale Road","SPRINGVALE","3171","340-344 Springvale Road, SPRINGVALE, VIC, 3171, Australia",-37.957017,145.151092,"RACF"
"Calvary St Jude's","381-403 NARRE WARREN NORTH Road","NARRE WARREN NORTH","3804","381-403 NARRE WARREN NORTH Road, NARRE WARREN NORTH, VIC, 3804, Australia",-37.9899144,145.312638857394,"RACF"
"Calvary Strzelecki House","27 GILES Street","MIRBOO NORTH","3871","27 GILES Street, MIRBOO NORTH, VIC, 3871, Australia",-38.402197,146.155867,"RACF"
"Calvary The Highbury","684 Highbury Road","GLEN WAVERLEY","3150","684 Highbury Road, GLEN WAVERLEY, VIC, 3150, Australia",-37.8624906,145.1717856,"RACF"
"Calvary The Regent","35-39 REGENT Street","MOUNT WAVERLEY","3149","35-39 REGENT Street, MOUNT WAVERLEY, VIC, 3149, Australia",-37.883162,145.136795,"RACF"
"Calvary Trugo Place","120 MASON Street","NEWPORT","3015","120 MASON Street, NEWPORT, VIC, 3015, Australia",-37.841223,144.873311,"RACF"
"Calvary Viewhills Manor","55 HEATHERTON Road","ENDEAVOUR HILLS","3802","55 HEATHERTON Road, ENDEAVOUR HILLS, VIC, 3802, Australia",-37.97529,145.276145,"RACF"
"Calvary Vonlea Manor","1-9 MORAN Place","NORLANE","3214","1-9 MORAN Place, NORLANE, VIC, 3214, Australia",-38.094387,144.345682,"RACF"
"Camberwell Green","12 HUNTER Road","CAMBERWELL","3124","12 HUNTER Road, CAMBERWELL, VIC, 3124, Australia",-37.837713,145.082959,"RACF"
"Cambridge House","3 CAMBRIDGE Street","COLLINGWOOD","3066","3 CAMBRIDGE Street, COLLINGWOOD, VIC, 3066, Australia",-37.808195,144.984620269338,"RACF"
"Carinya Lodge Homes","1 CARINYA Crescent","KORUMBURRA","3950","1 CARINYA Crescent, KORUMBURRA, VIC, 3950, Australia",-38.437714,145.811472,"RACF"
"Carinya Nursing Home (Frankston Extended Care)","34A BALAKA Street","CAPEL SOUND","3940","34A BALAKA Street, CAPEL SOUND, VIC, 3940, Australia",-38.370158,144.880253,"RACF"
"Carrum Downs Aged Care","80 WILLIAM Road","CARRUM DOWNS","3201","80 WILLIAM Road, CARRUM DOWNS, VIC, 3201, Australia",-38.099033,145.183777,"RACF"
"Carrum Downs Nursing Home (Meracare)","1135 FRANKSTON-DANDENONG Road","CARRUM DOWNS","3201","1135 FRANKSTON-DANDENONG Road, CARRUM DOWNS, VIC, 3201, Australia",-38.091655,145.180251,"RACF"
"Carshalton House Hostel","11 STONEHAM Street","GOLDEN SQUARE","3555","11 STONEHAM Street, GOLDEN SQUARE, VIC, 3555, Australia",-36.779711,144.256404,"RACF"
"Casey Aged Care","300 GOLF LINKS Road","NARRE WARREN","3805","300 GOLF LINKS Road, NARRE WARREN, VIC, 3805, Australia",-38.041215,145.305866,"RACF"
"Casey Manor Aged Care","445 ORMOND Road","NARRE WARREN SOUTH","3805","445 ORMOND Road, NARRE WARREN SOUTH, VIC, 3805, Australia",-38.064939,145.298344,"RACF"
"Casterton Memorial Hospital Nursing Home - Glenelg House","63-69 RUSSELL Street","CASTERTON","3311","63-69 RUSSELL Street, CASTERTON, VIC, 3311, Australia",-37.5902311,141.3932316,"RACF"
"Castlemaine Health - Residential Aged Care","20 Cornish Street","CASTLEMAINE","3450","20 Cornish Street, CASTLEMAINE, VIC, 3450, Australia",-37.0558175,144.2122141,"RACF"
"CCSSCI - On Luck Chinese Nursing Home","177-179 TINDALS Road","DONVALE","3111","177-179 TINDALS Road, DONVALE, VIC, 3111, Australia",-37.77129345,145.195316209378,"RACF"
"Chaffey Aged Care","2 Main Avenue  North","MERBEIN","3505","2 Main Avenue  North, MERBEIN, VIC, 3505, Australia",-34.1657985,142.0585779,"RACF"
"Charles Brownlow Retirement Village","157 SOUTH VALLEY Road","HIGHTON","3216","157 SOUTH VALLEY Road, HIGHTON, VIC, 3216, Australia",-38.190063,144.31545,"RACF"
"Charlesbrook Aged Care","1-11 INNISFALLEN Avenue","TEMPLESTOWE","3106","1-11 INNISFALLEN Avenue, TEMPLESTOWE, VIC, 3106, Australia",-37.753736,145.152071,"RACF"
"Charlton Aged Care","4 LEARMONTH Street","CHARLTON","3525","4 LEARMONTH Street, CHARLTON, VIC, 3525, Australia",-36.2703,143.351249,"RACF"
"Cheltenham Manor","10-12 BENDIGO Street","CHELTENHAM","3192","10-12 BENDIGO Street, CHELTENHAM, VIC, 3192, Australia",-37.96453985,145.05971232567,"RACF"
"Chestnut Gardens Aged Care Home","1 Chestnut Road","DOVETON","3177","1 Chestnut Road, DOVETON, VIC, 3177, Australia",-37.9953003,145.2329396,"RACF"
"Chomley House","113 CHOMLEY Street","PRAHRAN","3181","113 CHOMLEY Street, PRAHRAN, VIC, 3181, Australia",-37.854894,145.00587,"RACF"
"Churches of Christ Care Arcadia Aged Care Service","120 MCCRACKEN Street","ESSENDON","3040","120 MCCRACKEN Street, ESSENDON, VIC, 3040, Australia",-37.742889,144.904885,"RACF"
"Churches of Christ Care Oak Towers Aged Care Service","139 ATHERTON Road","OAKLEIGH","3166","139 ATHERTON Road, OAKLEIGH, VIC, 3166, Australia",-37.899344,145.097874,"RACF"
"Claremont Terrace","231-253 MCKINNON Road","MCKINNON","3204","231-253 MCKINNON Road, MCKINNON, VIC, 3204, Australia",-37.911341,145.041977,"RACF"
"Clifton Views","217-241 Queens Parade","FITZROY NORTH","3068","217-241 Queens Parade, FITZROY NORTH, VIC, 3068, Australia",-37.7865304,144.994349500127,"RACF"
"Clovelly Cottage","16 STEWART Street","BORONIA","3155","16 STEWART Street, BORONIA, VIC, 3155, Australia",-37.852256,145.289189,"RACF"
"Coates Hostel","1 JAMES Street","ST ARNAUD","3478","1 JAMES Street, ST ARNAUD, VIC, 3478, Australia",-36.608944,143.247871,"RACF"
"Cobram Regional Care","16 CAMPBELL Road","COBRAM","3644","16 CAMPBELL Road, COBRAM, VIC, 3644, Australia",-35.919772,145.660054,"RACF"
"Cohuna District Nursing Home","144-158 KING GEORGE Street","COHUNA","3568","144-158 KING GEORGE Street, COHUNA, VIC, 3568, Australia",-35.80008415,144.214756069194,"RACF"
"Cohuna Retirement Village","38 Augustine Street","COHUNA","3568","38 Augustine Street, COHUNA, VIC, 3568, Australia",-35.80015,144.21535,"RACF"
"Cooinda Lodge Nursing Home","41 LANDSBOROUGH Street","WARRAGUL","3820","41 LANDSBOROUGH Street, WARRAGUL, VIC, 3820, Australia",-38.172445,145.927329,"RACF"
"Cooinda Village Inc.","1-35 Kilfeera Road","BENALLA","3672","1-35 Kilfeera Road, BENALLA, VIC, 3672, Australia",-36.556863,145.999191,"RACF"
"Coptic Village Hostel","18 ST KYRILLOS Place","NARRE WARREN","3805","18 ST KYRILLOS Place, NARRE WARREN, VIC, 3805, Australia",-38.005934,145.286092,"RACF"
"Corangamarah","2-28 CONNOR Street","COLAC","3250","2-28 CONNOR Street, COLAC, VIC, 3250, Australia",-38.340956,143.582875,"RACF"
"Corpus Christi Community Greenvale Incorporated","855 MICKLEHAM Road","GREENVALE","3059","855 MICKLEHAM Road, GREENVALE, VIC, 3059, Australia",-37.63721895,144.879358725059,"RACF"
"Corryong Health","Kiell Street","CORRYONG","3707","Kiell Street, CORRYONG, VIC, 3707, Australia",-36.1977057,147.9029391,"RACF"
"Costa House - Karingal St Laurence (genU)","1 Investigator Avenue","LARA","3212","1 Investigator Avenue, LARA, VIC, 3212, Australia",-38.0255676,144.4024867,"RACF"
"CraigCare Berwick","21 Parkhill Drive","BERWICK","3806","21 Parkhill Drive, BERWICK, VIC, 3806, Australia",-38.02698095,145.326867988299,"RACF"
"CraigCare Moonee Ponds","88 Holmes Road","MOONEE PONDS","3039","88 Holmes Road, MOONEE PONDS, VIC, 3039, Australia",-37.765754,144.912916,"RACF"
"CraigCare Mornington","688 NEPEAN Highway","MOUNT MARTHA","3934","688 NEPEAN Highway, MOUNT MARTHA, VIC, 3934, Australia",-38.251335,145.037025,"RACF"
"CraigCare Pascoe Vale","1A VIRGINIA Street","PASCOE VALE","3044","1A VIRGINIA Street, PASCOE VALE, VIC, 3044, Australia",-37.715478,144.943575,"RACF"
"CraigCare Plumpton Villa","7 LEWIS Street","GLENROY","3046","7 LEWIS Street, GLENROY, VIC, 3046, Australia",-37.709294,144.921963,"RACF"
"Creswick Nursing Home","1 NAPIER Street","CRESWICK","3363","1 NAPIER Street, CRESWICK, VIC, 3363, Australia",-37.421401,143.891693,"RACF"
"Crossley House Hostel Inc","14 NICOL Street","YARRAM","3971","14 NICOL Street, YARRAM, VIC, 3971, Australia",-38.557623,146.678615,"RACF"
"Croydon Grove Care Community","77-115 Mt Dandenong Road","CROYDON","3136","77-115 Mt Dandenong Road, CROYDON, VIC, 3136, Australia",-37.800111,145.271421,"RACF"
"Cumberland Manor","25-27 Wiltshire Street","NORTH SUNSHINE","3020","25-27 Wiltshire Street, NORTH SUNSHINE, VIC, 3020, Australia",-37.7749349,144.8446611,"RACF"
"Cumberland View Aged Care Living - Whalley Drive","123-127 Whalley Drive","WHEELERS HILL","3150","123-127 Whalley Drive, WHEELERS HILL, VIC, 3150, Australia",-37.922289,145.198987,"RACF"
"Cyril Jewell House","68 HASSETT Crescent","KEILOR EAST","3033","68 HASSETT Crescent, KEILOR EAST, VIC, 3033, Australia",-37.737325,144.85782,"RACF"
"Darlingford Upper Goulburn Nursing Home","5 HIGH Street","EILDON","3713","5 HIGH Street, EILDON, VIC, 3713, Australia",-37.229806,145.913547,"RACF"
"Daylesford Nursing Home","13 HOSPITAL Street","DAYLESFORD","3460","13 HOSPITAL Street, DAYLESFORD, VIC, 3460, Australia",-37.33721345,144.145291480645,"RACF"
"Della dale Aged Care","17 DERWENT Street","RINGWOOD","3134","17 DERWENT Street, RINGWOOD, VIC, 3134, Australia",-37.803627,145.228581,"RACF"
"Deloraine Private Nursing Home","18 ADELINE Street","GREENSBOROUGH","3088","18 ADELINE Street, GREENSBOROUGH, VIC, 3088, Australia",-37.706935,145.094062,"RACF"
"Diana Street Lodge","17 DIANA Street","CROYDON","3136","17 DIANA Street, CROYDON, VIC, 3136, Australia",-37.799126,145.26042,"RACF"
"Dimboola District Hospital Nursing Home Unit","32-36 ANDERSON Street","DIMBOOLA","3414","32-36 ANDERSON Street, DIMBOOLA, VIC, 3414, Australia",-36.4498139,142.024446879836,"RACF"
"Donwood Aged Care","11 DIANA Street","CROYDON","3136","11 DIANA Street, CROYDON, VIC, 3136, Australia",-37.799673,145.260868,"RACF"
"Dorothy Impey Home","317A O'Hea Street","PASCOE VALE","3044","317A O'Hea Street, PASCOE VALE, VIC, 3044, Australia",-37.734769,144.936777,"RACF"
"Doutta Galla Avondale Heights Aged Care Facility","120 NORTH Road","AVONDALE HEIGHTS","3034","120 NORTH Road, AVONDALE HEIGHTS, VIC, 3034, Australia",-37.757277,144.852022,"RACF"
"Doutta Galla Footscray Aged Care Facility","48 Geelong Road","FOOTSCRAY","3011","48 Geelong Road, FOOTSCRAY, VIC, 3011, Australia",-37.797294,144.894673,"RACF"
"Doutta Galla Grantham Green Aged Care Facility","28-32 MAGNOLIA Street","ST ALBANS","3021","28-32 MAGNOLIA Street, ST ALBANS, VIC, 3021, Australia",-37.753083,144.820779,"RACF"
"Doutta Galla Lynch's Bridge Aged Care Facility","44 MARKET Street","KENSINGTON","3031","44 MARKET Street, KENSINGTON, VIC, 3031, Australia",-37.7895876,144.926423651951,"RACF"
"Doutta Galla Queens Park Aged Care Facility","13 The Strand","MOONEE PONDS","3039","13 The Strand, MOONEE PONDS, VIC, 3039, Australia",-37.76013205,144.924669037493,"RACF"
"Doutta Galla Woornack Aged Care Facility","6-8 KILLARA Street","SUNSHINE WEST","3020","6-8 KILLARA Street, SUNSHINE WEST, VIC, 3020, Australia",-37.787495,144.823272,"RACF"
"Doutta Galla Yarraville Village Aged Care Facility","34 A Somerville Road","YARRAVILLE","3013","34 A Somerville Road, YARRAVILLE, VIC, 3013, Australia",-37.813783,144.893823,"RACF"
"Drysdale Grove","33-37 WYNDHAM Street","DRYSDALE","3222","33-37 WYNDHAM Street, DRYSDALE, VIC, 3222, Australia",-38.172844,144.567759,"RACF"
"Dunmunkle Lodge Inc","1 Mcleod Street","MINYIP","3392","1 Mcleod Street, MINYIP, VIC, 3392, Australia",-36.458357,142.594166,"RACF"
"Dunolly Nursing Home","12 HAVELOCK Street","DUNOLLY","3472","12 HAVELOCK Street, DUNOLLY, VIC, 3472, Australia",-36.856537,143.735216,"RACF"
"Edenvale Manor Aged Care Facility","188A STERLING Drive","KEILOR EAST","3033","188A STERLING Drive, KEILOR EAST, VIC, 3033, Australia",-37.744664,144.849696,"RACF"
"Edgarley Home","85 Jackson Street","CASTERTON","3311","85 Jackson Street, CASTERTON, VIC, 3311, Australia",-37.590589,141.396774,"RACF"
"Edith Bendall Lodge","11 Park Street","PASCOE VALE","3044","11 Park Street, PASCOE VALE, VIC, 3044, Australia",-37.729078,144.925625,"RACF"
"Edward Street Nursing Home","2-4 Edward Street","UPPER FERNTREE GULLY","3156","2-4 Edward Street, UPPER FERNTREE GULLY, VIC, 3156, Australia",-37.898002,145.314183,"RACF"
"Elderly Chinese Home","125-129 Manningham Street","PARKVILLE","3052","125-129 Manningham Street, PARKVILLE, VIC, 3052, Australia",-37.78371,144.940818,"RACF"
"Embracia Moonee Valley","76-86 NORTH Road","AVONDALE HEIGHTS","3034","76-86 NORTH Road, AVONDALE HEIGHTS, VIC, 3034, Australia",-37.75534,144.855416,"RACF"
"Embracia Reservoir","65 GLASGOW Avenue","RESERVOIR","3073","65 GLASGOW Avenue, RESERVOIR, VIC, 3073, Australia",-37.703401,144.999053,"RACF"
"Emerald Hill Residence","203 NAPIER Street","SOUTH MELBOURNE","3205","203 NAPIER Street, SOUTH MELBOURNE, VIC, 3205, Australia",-37.837001,144.960677,"RACF"
"Emerald Terrace Aged Care","1 CHIVERS Road","TEMPLESTOWE","3106","1 CHIVERS Road, TEMPLESTOWE, VIC, 3106, Australia",-37.7608986,145.1461074,"RACF"
"Emmy Monash Aged Care","518-526 Dandenong Road","CAULFIELD NORTH","3161","518-526 Dandenong Road, CAULFIELD NORTH, VIC, 3161, Australia",-37.866236,145.026589,"RACF"
"Epping Gardens","25 WILLANDRA Drive","EPPING","3076","25 WILLANDRA Drive, EPPING, VIC, 3076, Australia",-37.647278,145.008823,"RACF"
"Epping Meadows Care Community","202 MCDONALDS Road","EPPING","3076","202 MCDONALDS Road, EPPING, VIC, 3076, Australia",-37.647904,145.060762,"RACF"
"Estia Health Altona Meadows","297 QUEEN Street","ALTONA MEADOWS","3028","297 QUEEN Street, ALTONA MEADOWS, VIC, 3028, Australia",-37.873812,144.787647,"RACF"
"Estia Health Ardeer","30 NORTH Street","ARDEER","3022","30 NORTH Street, ARDEER, VIC, 3022, Australia",-37.779275,144.807895,"RACF"
"Estia Health Bannockburn","71 MCPHILLIPS Road","BANNOCKBURN","3331","71 MCPHILLIPS Road, BANNOCKBURN, VIC, 3331, Australia",-38.03728295,144.16509162158,"RACF"
"Estia Health Benalla Vic","73 SAMARIA Road","BENALLA","3672","73 SAMARIA Road, BENALLA, VIC, 3672, Australia",-36.557056,145.996618,"RACF"
"Estia Health Bendigo","9 BROWN Street","LONG GULLY","3550","9 BROWN Street, LONG GULLY, VIC, 3550, Australia",-36.74454375,144.265281720153,"RACF"
"Estia Health Bentleigh","34-36 CLAIRMONT Avenue","BENTLEIGH","3204","34-36 CLAIRMONT Avenue, BENTLEIGH, VIC, 3204, Australia",-37.921903,145.026874,"RACF"
"Estia Health Coolaroo","15 MLADEN Court","COOLAROO","3048","15 MLADEN Court, COOLAROO, VIC, 3048, Australia",-37.657666,144.931367,"RACF"
"Estia Health Dandenong","147-151 DAVID Street","DANDENONG","3175","147-151 DAVID Street, DANDENONG, VIC, 3175, Australia",-37.977784,145.224264,"RACF"
"Estia Health Epping Vic","30 EPPING Road","EPPING","3076","30 EPPING Road, EPPING, VIC, 3076, Australia",-37.635172,145.027173,"RACF"
"Estia Health Glen Waverley","2B GRACE Street","GLEN WAVERLEY","3150","2B GRACE Street, GLEN WAVERLEY, VIC, 3150, Australia",-37.8788019,145.156353,"RACF"
"Estia Health Grovedale","6A PERRETT Street","GROVEDALE","3216","6A PERRETT Street, GROVEDALE, VIC, 3216, Australia",-38.208025,144.3409518,"RACF"
"Estia Health Heidelberg","413-415 Waterdale Road","HEIDELBERG WEST","3081","413-415 Waterdale Road, HEIDELBERG WEST, VIC, 3081, Australia",-37.748036,145.046458,"RACF"
"Estia Health Keysborough","15 STANLEY Road","KEYSBOROUGH","3173","15 STANLEY Road, KEYSBOROUGH, VIC, 3173, Australia",-37.9951963,145.16949272901,"RACF"
"Estia Health Knoxfield","428 SCORESBY Road","KNOXFIELD","3180","428 SCORESBY Road, KNOXFIELD, VIC, 3180, Australia",-37.882982,145.257377,"RACF"
"Estia Health Leopold","52-60 ASH Road","LEOPOLD","3224","52-60 ASH Road, LEOPOLD, VIC, 3224, Australia",-38.195536,144.467106,"RACF"
"Estia Health Melton South","34-42 BROOKLYN Road","MELTON SOUTH","3338","34-42 BROOKLYN Road, MELTON SOUTH, VIC, 3338, Australia",-37.7024022,144.5723145,"RACF"
"Estia Health Oakleigh East","23A ELIZABETH Street","OAKLEIGH","3166","23A ELIZABETH Street, OAKLEIGH, VIC, 3166, Australia",-37.89833,145.10973,"RACF"
"Estia Health Plenty Valley","806 Plenty Road","SOUTH MORANG","3752","806 Plenty Road, SOUTH MORANG, VIC, 3752, Australia",-37.652142,145.087211,"RACF"
"Estia Health Ringwood - Waldreas Village","211-217 Wantirna Road","RINGWOOD","3134","211-217 Wantirna Road, RINGWOOD, VIC, 3134, Australia",-37.836787,145.228687,"RACF"
"Estia Health South Morang - Heritage Lakes","879 PLENTY Road","SOUTH MORANG","3752","879 PLENTY Road, SOUTH MORANG, VIC, 3752, Australia",-37.64712485,145.090730250811,"RACF"
"Estia Health Victoria Heights","41-45 Victoria Street","IRONBARK","3550","41-45 Victoria Street, IRONBARK, VIC, 3550, Australia",-36.7516543,144.2660047,"RACF"
"Estia Health Wattle Glen","45 SILVAN Road","WATTLE GLEN","3096","45 SILVAN Road, WATTLE GLEN, VIC, 3096, Australia",-37.6543364,145.1940235,"RACF"
"Estia Health Werribee","8 RUSSELL Street","WERRIBEE","3030","8 RUSSELL Street, WERRIBEE, VIC, 3030, Australia",-37.908398,144.664925,"RACF"
"Estia Health Wodonga","240 FELLTIMBER CREEK Road","WODONGA","3690","240 FELLTIMBER CREEK Road, WODONGA, VIC, 3690, Australia",-36.131627,146.838726,"RACF"
"Estia Health Yarra Valley","21 HODDLE Street","YARRA JUNCTION","3797","21 HODDLE Street, YARRA JUNCTION, VIC, 3797, Australia",-37.784854,145.611968,"RACF"
"Eureka Village Hostel","16-40 BALMORAL Drive","BALLARAT EAST","3350","16-40 BALMORAL Drive, BALLARAT EAST, VIC, 3350, Australia",-37.559875,143.88963,"RACF"
"Eva Tilley Memorial Home","1100 BURKE Road","BALWYN NORTH","3104","1100 BURKE Road, BALWYN NORTH, VIC, 3104, Australia",-37.796683,145.063526,"RACF"
"Eventide Homes Stawell Inc","111 Patrick Street","STAWELL","3380","111 Patrick Street, STAWELL, VIC, 3380, Australia",-37.062696,142.792106,"RACF"
"Eventide Lutheran Homes","72 Ballarat Road","HAMILTON","3300","72 Ballarat Road, HAMILTON, VIC, 3300, Australia",-37.743661,142.040225,"RACF"
"Fairview Village","30 Sargeant Street","WARRAGUL","3820","30 Sargeant Street, WARRAGUL, VIC, 3820, Australia",-38.174364,145.92713,"RACF"
"Fairway Bayside Aged Care","195 BLUFF Road","SANDRINGHAM","3191","195 BLUFF Road, SANDRINGHAM, VIC, 3191, Australia",-37.9600766,145.018329096563,"RACF"
"Faversham House","27 SHIERLAW Avenue","CANTERBURY","3126","27 SHIERLAW Avenue, CANTERBURY, VIC, 3126, Australia",-37.823342,145.085206,"RACF"
"Forest Lodge Residential Aged Care","23 FOREST Drive","FRANKSTON NORTH","3200","23 FOREST Drive, FRANKSTON NORTH, VIC, 3200, Australia",-38.122557,145.146428,"RACF"
"Frankston Nursing Home (Meracare)","8-12 Nolan Street","FRANKSTON","3199","8-12 Nolan Street, FRANKSTON, VIC, 3199, Australia",-38.14939,145.117816,"RACF"
"Freedom Aged Care Sandringham","15-25 George Street","SANDRINGHAM","3191","15-25 George Street, SANDRINGHAM, VIC, 3191, Australia",-37.957179,145.029061,"RACF"
"Fronditha Care Clayton","94 SPRINGS Road","CLAYTON SOUTH","3169","94 SPRINGS Road, CLAYTON SOUTH, VIC, 3169, Australia",-37.936321,145.107959,"RACF"
"Fronditha Care St. Albans","181 FURLONG Road","ST ALBANS","3021","181 FURLONG Road, ST ALBANS, VIC, 3021, Australia",-37.7613245,144.811004864161,"RACF"
"Fronditha Care Templestowe","11 OMAR Street","TEMPLESTOWE LOWER","3107","11 OMAR Street, TEMPLESTOWE LOWER, VIC, 3107, Australia",-37.755854,145.116133,"RACF"
"Fronditha Care Thornbury","335 STATION Street","THORNBURY","3071","335 STATION Street, THORNBURY, VIC, 3071, Australia",-37.764523,145.020785,"RACF"
"Garden View Court Hostel","Lowe Street","ARARAT","3377","Lowe Street, ARARAT, VIC, 3377, Australia",-37.2778385,142.925176,"RACF"
"Geoffrey Cutter Centre","10 Kenny Street","BALLARAT","3350","10 Kenny Street, BALLARAT, VIC, 3350, Australia",-37.559875,143.88963,"RACF"
"Gibson Street Complex","26 GIBSON Street","NORTH BENDIGO","3550","26 GIBSON Street, NORTH BENDIGO, VIC, 3550, Australia",-36.7317389,144.2688098,"RACF"
"Gisborne Oaks","5 NEAL Street","GISBORNE","3437","5 NEAL Street, GISBORNE, VIC, 3437, Australia",-37.48581,144.584445,"RACF"
"Glanville Village","17 FRANCIS Street","ECHUCA","3564","17 FRANCIS Street, ECHUCA, VIC, 3564, Australia",-36.138092,144.7490372,"RACF"
"Glenarm Nursing Home","13-15 BURGOYNE Street","KERANG","3579","13-15 BURGOYNE Street, KERANG, VIC, 3579, Australia",-35.72441,143.917072,"RACF"
"Glendale Aged Care","1 Glendale Court","WERRIBEE","3030","1 Glendale Court, WERRIBEE, VIC, 3030, Australia",-37.877869,144.678541,"RACF"
"Glengollan Village","97 Underwood Road","FERNTREE GULLY","3156","97 Underwood Road, FERNTREE GULLY, VIC, 3156, Australia",-37.874716,145.292225,"RACF"
"Glenview Community Care Nursing Home","168 HIGH Street","RUTHERGLEN","3685","168 HIGH Street, RUTHERGLEN, VIC, 3685, Australia",-36.057304,146.458585,"RACF"
"Golden Oaks Nursing Home","Stoneham Street","GOLDEN SQUARE","3555","Stoneham Street, GOLDEN SQUARE, VIC, 3555, Australia",-36.77995,144.255944,"RACF"
"Gorrinn House Hostel","27 ALBERT Street","ARARAT","3377","27 ALBERT Street, ARARAT, VIC, 3377, Australia",-37.289119,142.940756,"RACF"
"Grace Of Mary Greek Cypriot Elderly Hostel","190-200 MCDONALDS Road","EPPING","3076","190-200 MCDONALDS Road, EPPING, VIC, 3076, Australia",-37.647814,145.059959,"RACF"
"Grace Villa Aged Care","25-33 GRIMSHAW Street","GREENSBOROUGH","3088","25-33 GRIMSHAW Street, GREENSBOROUGH, VIC, 3088, Australia",-37.70513,145.105867,"RACF"
"Graceland Manor","508 Glenhuntly Road","ELSTERNWICK","3185","508 Glenhuntly Road, ELSTERNWICK, VIC, 3185, Australia",-37.885602,145.009924,"RACF"
"Grand Cedar Aged Care","61-63 HIGH STREET Road","ASHWOOD","3147","61-63 HIGH STREET Road, ASHWOOD, VIC, 3147, Australia",-37.866106,145.097021,"RACF"
"Grandview Lodge","19 GRANDVIEW Street","WYCHEPROOF","3527","19 GRANDVIEW Street, WYCHEPROOF, VIC, 3527, Australia",-36.079249,143.234002,"RACF"
"Grange Residential Care Services","19 GRAY Street","HAMILTON","3300","19 GRAY Street, HAMILTON, VIC, 3300, Australia",-37.746117,142.01843,"RACF"
"GraniteHill Aged Care","36 KENNEDY Street","EUROA","3666","36 KENNEDY Street, EUROA, VIC, 3666, Australia",-36.75981995,145.56940445,"RACF"
"Grant Lodge Aged Care Facility","1 CLARINDA Street","BACCHUS MARSH","3340","1 CLARINDA Street, BACCHUS MARSH, VIC, 3340, Australia",-37.67502,144.4325,"RACF"
"Great Ocean Road Health - Lorne Nursing Home","7 ALBERT Street","LORNE","3232","7 ALBERT Street, LORNE, VIC, 3232, Australia",-38.546373,143.979403,"RACF"
"Great Ocean Road Health Apollo Bay","37-43 Mclachlan Street","APOLLO BAY","3233","37-43 Mclachlan Street, APOLLO BAY, VIC, 3233, Australia",-38.7538618,143.664005479712,"RACF"
"Greenview Aged Care","33-37 Mitcham Road","DONVALE","3111","33-37 Mitcham Road, DONVALE, VIC, 3111, Australia",-37.793446,145.176618,"RACF"
"Greenwood Manor (Outlet)","617 LOWER DANDENONG Road","DINGLEY VILLAGE","3172","617 LOWER DANDENONG Road, DINGLEY VILLAGE, VIC, 3172, Australia",-37.989978,145.138409,"RACF"
"Griffiths Point Lodge Hostel","Davis Point Road","SAN REMO","3925","Davis Point Road, SAN REMO, VIC, 3925, Australia",-38.5265635,145.3705283,"RACF"
"Grutzner House","2-22 Graham Street","SHEPPARTON","3630","2-22 Graham Street, SHEPPARTON, VIC, 3630, Australia",-36.3624743,145.4066783,"RACF"
"Hailey House Hostel","703 NORMAN Street","BALLARAT NORTH","3350","703 NORMAN Street, BALLARAT NORTH, VIC, 3350, Australia",-37.536491,143.857802,"RACF"
"Hakea Residential Aged Care Service","9 Batman Avenue","SHEPPARTON","3630","9 Batman Avenue, SHEPPARTON, VIC, 3630, Australia",-36.364372,145.391145,"RACF"
"HammondCare - Caulfield Village","260 KOOYONG Road","CAULFIELD","3162","260 KOOYONG Road, CAULFIELD, VIC, 3162, Australia",-37.8823815,145.016733,"RACF"
"HammondCare - The Glens","294 KOOYONG Road","CAULFIELD","3162","294 KOOYONG Road, CAULFIELD, VIC, 3162, Australia",-37.884402,145.015475,"RACF"
"Harbourside Lodge","141-151 BENTINCK Street","PORTLAND","3305","141-151 BENTINCK Street, PORTLAND, VIC, 3305, Australia",-38.341203,141.60519,"RACF"
"Harmony Village Aged Care Facility","20 ZURCAS Lane","SHEPPARTON","3630","20 ZURCAS Lane, SHEPPARTON, VIC, 3630, Australia",-36.389146,145.426693,"RACF"
"Havilah Hostel","11 HARKNESS Street","MARYBOROUGH","3465","11 HARKNESS Street, MARYBOROUGH, VIC, 3465, Australia",-37.038685,143.743934,"RACF"
"Havilah on Palmerston","25 PALMERSTON Street","MARYBOROUGH","3465","25 PALMERSTON Street, MARYBOROUGH, VIC, 3465, Australia",-37.045107,143.734312,"RACF"
"Heathcote Health High Care Service","39 HOSPITAL Street","HEATHCOTE","3523","39 HOSPITAL Street, HEATHCOTE, VIC, 3523, Australia",-36.925604,144.709705,"RACF"
"Hepburn House","1 HEPBURN Road","DAYLESFORD","3460","1 HEPBURN Road, DAYLESFORD, VIC, 3460, Australia",-37.329515,144.145352,"RACF"
"Heritage Gardens","325-329 CANTERBURY Road","BAYSWATER","3153","325-329 CANTERBURY Road, BAYSWATER, VIC, 3153, Australia",-37.8334295,145.266015110098,"RACF"
"Hesse Rural Health Nursing Home","8 GOSNEY Street","WINCHELSEA","3241","8 GOSNEY Street, WINCHELSEA, VIC, 3241, Australia",-38.243435,143.984994,"RACF"
"Heytesbury Lodge & Lovely Banks Residential Care","5 VICTORIA Street","COBDEN","3266","5 VICTORIA Street, COBDEN, VIC, 3266, Australia",-38.332234,143.0763,"RACF"
"Heywood Nursing Home","21 BARCLAY Street","HEYWOOD","3304","21 BARCLAY Street, HEYWOOD, VIC, 3304, Australia",-38.1379457,141.624074,"RACF"
"Highton Gardens Care Community","209 South Valley Road","HIGHTON","3216","209 South Valley Road, HIGHTON, VIC, 3216, Australia",-38.193912,144.316596,"RACF"
"Highwood Court Aged Care","359 WARRIGAL Road","BURWOOD","3125","359 WARRIGAL Road, BURWOOD, VIC, 3125, Australia",-37.853094,145.095371,"RACF"
"Hillview Bunyip Aged Care Inc","22 Abeckett Road","BUNYIP","3815","22 Abeckett Road, BUNYIP, VIC, 3815, Australia",-38.097431,145.724268,"RACF"
"Holloway Aged Care Services","1 ROTARY Drive","KEILOR EAST","3033","1 ROTARY Drive, KEILOR EAST, VIC, 3033, Australia",-37.747734,144.861613,"RACF"
"Holmwood Aged Care","17-19 LALORS Road","HEALESVILLE","3777","17-19 LALORS Road, HEALESVILLE, VIC, 3777, Australia",-37.661943,145.515987,"RACF"
"Homestead Estate","9-11 Homestead Avenue","WALLINGTON","3222","9-11 Homestead Avenue, WALLINGTON, VIC, 3222, Australia",-38.2193809,144.5367052,"RACF"
"Homestyle Belmont Grange","34 CHURCH Street","GROVEDALE","3216","34 CHURCH Street, GROVEDALE, VIC, 3216, Australia",-38.196323,144.337686,"RACF"
"Homestyle Clarendon Grange","40 Stud Road","WANTIRNA","3152","40 Stud Road, WANTIRNA, VIC, 3152, Australia",-37.846144,145.246826,"RACF"
"Homestyle Ferndale Gardens","229-239 BAYSWATER Road","BAYSWATER NORTH","3153","229-239 BAYSWATER Road, BAYSWATER NORTH, VIC, 3153, Australia",-37.82312795,145.269724138383,"RACF"
"Homestyle Green Gables","15 COULSTOCK Street","EPPING","3076","15 COULSTOCK Street, EPPING, VIC, 3076, Australia",-37.650519,145.031623,"RACF"
"Homestyle Kensington Grange","13 Ferguson Road","LEOPOLD","3224","13 Ferguson Road, LEOPOLD, VIC, 3224, Australia",-38.190126,144.463816,"RACF"
"Homestyle Langford Grange","1 RESIDENCE Drive","CRANBOURNE EAST","3977","1 RESIDENCE Drive, CRANBOURNE EAST, VIC, 3977, Australia",-38.112638,145.300389,"RACF"
"Homestyle Melville Grange","80 MELVILLE PARK Drive","BERWICK","3806","80 MELVILLE PARK Drive, BERWICK, VIC, 3806, Australia",-38.039613,145.346226,"RACF"
"Homestyle Point Cook Manor","9 HEWETT Drive","POINT COOK","3030","9 HEWETT Drive, POINT COOK, VIC, 3030, Australia",-37.891945,144.725371,"RACF"
"Homestyle Rowville Manor","18 LE JOHN Street","ROWVILLE","3178","18 LE JOHN Street, ROWVILLE, VIC, 3178, Australia",-37.9256944,145.250947462668,"RACF"
"Homestyle Sea Views Manor","77-79 TAREEDA Way","OCEAN GROVE","3226","77-79 TAREEDA Way, OCEAN GROVE, VIC, 3226, Australia",-38.2528955,144.5519623,"RACF"
"Homestyle Sunset Views Manor","142 SUNSET VIEWS Boulevard","TARNEIT","3029","142 SUNSET VIEWS Boulevard, TARNEIT, VIC, 3029, Australia",-37.836075,144.695486,"RACF"
"Homewood Residential Aged Care","8 YOUNG Road","HALLAM","3803","8 YOUNG Road, HALLAM, VIC, 3803, Australia",-38.004759,145.276065346787,"RACF"
"Honeysuckle Regional Health","48 COWSLIP Street","VIOLET TOWN","3669","48 COWSLIP Street, VIOLET TOWN, VIC, 3669, Australia",-36.6367433,145.7164394,"RACF"
"Honeysuckle Regional Health, Bentley's Aged Care","47 HARPIN Street","EAST BENDIGO","3550","47 HARPIN Street, EAST BENDIGO, VIC, 3550, Australia",-36.751856,144.305383,"RACF"
"Hope Aged Care","34 LUX Way","BRUNSWICK","3056","34 LUX Way, BRUNSWICK, VIC, 3056, Australia",-37.765575,144.959624,"RACF"
"Hope Aged Care Swan Hill","39-41 Acacia Street","SWAN HILL","3585","39-41 Acacia Street, SWAN HILL, VIC, 3585, Australia",-35.344619,143.524948,"RACF"
"Hopetoun Hostel","12 MITCHELL Place","HOPETOUN","3396","12 MITCHELL Place, HOPETOUN, VIC, 3396, Australia",-35.7320094,142.366398373451,"RACF"
"Ian Brand Nursing Home","1231 Plenty Road","BUNDOORA","3083","1231 Plenty Road, BUNDOORA, VIC, 3083, Australia",-37.7010738,145.0553803,"RACF"
"Illoura - Residential Aged Care","32-50 COLLEGE Street","WANGARATTA","3677","32-50 COLLEGE Street, WANGARATTA, VIC, 3677, Australia",-36.338071,146.30985,"RACF"
"Inglewood & Districts Health Service (Hostel)","3 HOSPITAL Street","INGLEWOOD","3517","3 HOSPITAL Street, INGLEWOOD, VIC, 3517, Australia",-36.571906,143.873078,"RACF"
"Inverloch Coast Care Community","119 CASHIN Street","INVERLOCH","3996","119 CASHIN Street, INVERLOCH, VIC, 3996, Australia",-38.628498,145.716853,"RACF"
"Iona Digby Harris Home","49 Nelson Street","NHILL","3418","49 Nelson Street, NHILL, VIC, 3418, Australia",-36.333878,141.655837,"RACF"
"Irvin House NCN Health Cobram","24-32 BROADWAY Street","COBRAM","3644","24-32 BROADWAY Street, COBRAM, VIC, 3644, Australia",-35.91653,145.651093,"RACF"
"Isomer Retirement Home","1273 WELLINGTON Road","LYSTERFIELD","3156","1273 WELLINGTON Road, LYSTERFIELD, VIC, 3156, Australia",-37.928583,145.2712498,"RACF"
"J.H.F. McDonald Wing Nursing Home","48 Kent Street","MAFFRA","3860","48 Kent Street, MAFFRA, VIC, 3860, Australia",-37.960964,146.983279,"RACF"
"Jacaranda Village","4-8 CALOTIS Street","RED CLIFFS","3496","4-8 CALOTIS Street, RED CLIFFS, VIC, 3496, Australia",-34.314935,142.187641,"RACF"
"Jack Lonsdale Lodge","232 SPENCER Street","SEBASTOPOL","3356","232 SPENCER Street, SEBASTOPOL, VIC, 3356, Australia",-37.596984,143.83803,"RACF"
"James Barker House","64 BUCKLEY Street","FOOTSCRAY","3011","64 BUCKLEY Street, FOOTSCRAY, VIC, 3011, Australia",-37.803655,144.896157,"RACF"
"James Thomas Court","117 MORGAN Street","SEBASTOPOL","3356","117 MORGAN Street, SEBASTOPOL, VIC, 3356, Australia",-37.604876,143.835707,"RACF"
"Jeparit & District Nursing Home","2 CHARLES Street","JEPARIT","3423","2 CHARLES Street, JEPARIT, VIC, 3423, Australia",-36.141002,141.98473,"RACF"
"Jewish Care : Residential Home, Windsor","619 St Kilda Road","MELBOURNE","3004","619 St Kilda Road, MELBOURNE, VIC, 3004, Australia",-37.85290825,144.982343078421,"RACF"
"Jewish Care: Residential Home, Carnegie","1 WAHGOO Road","CARNEGIE","3163","1 WAHGOO Road, CARNEGIE, VIC, 3163, Australia",-37.8950355,145.063084623592,"RACF"
"John Curtin Aged Care","6 CUSHING Avenue","CRESWICK","3363","6 CUSHING Avenue, CRESWICK, VIC, 3363, Australia",-37.4195276,143.8916475,"RACF"
"John Flynn Retirement Village","6 Foundation Boulevard","BURWOOD EAST","3151","6 Foundation Boulevard, BURWOOD EAST, VIC, 3151, Australia",-37.850516,145.135445,"RACF"
"Johnson-Goodwin Memorial Homes","22 CAMP Street","DONALD","3480","22 CAMP Street, DONALD, VIC, 3480, Australia",-36.370841,142.97777,"RACF"
"Kalyna Care","344 Taylors Road","DELAHEY","3037","344 Taylors Road, DELAHEY, VIC, 3037, Australia",-37.72486315,144.77260183546,"RACF"
"Kaniva Hostel","7 Farmers Street","KANIVA","3419","7 Farmers Street, KANIVA, VIC, 3419, Australia",-36.381186,141.246061,"RACF"
"Kara Court Nursing Home","52 NORTH WESTERN Road","ST ARNAUD","3478","52 NORTH WESTERN Road, ST ARNAUD, VIC, 3478, Australia",-36.609559,143.246848,"RACF"
"Karana","7 HUME Street","YARRAWONGA","3730","7 HUME Street, YARRAWONGA, VIC, 3730, Australia",-36.009222,146.005734,"RACF"
"Karingal Seymour","3 BRETONNEUX Street","SEYMOUR","3660","3 BRETONNEUX Street, SEYMOUR, VIC, 3660, Australia",-37.018613,145.139789,"RACF"
"Karinya NCN Health Numurkah","2 KATAMATITE-NATHALIA Road","NUMURKAH","3636","2 KATAMATITE-NATHALIA Road, NUMURKAH, VIC, 3636, Australia",-36.0995367,145.4433815,"RACF"
"Kellock Lodge Alexandra Inc","15 BON Street","ALEXANDRA","3714","15 BON Street, ALEXANDRA, VIC, 3714, Australia",-37.185536,145.711992,"RACF"
"Kerala Manor","203 Broadgully Road","DIAMOND CREEK","3089","203 Broadgully Road, DIAMOND CREEK, VIC, 3089, Australia",-37.663925,145.163185,"RACF"
"Kew Gardens Aged Care","22-24 GELLIBRAND Street","KEW","3101","22-24 GELLIBRAND Street, KEW, VIC, 3101, Australia",-37.80824,145.032672,"RACF"
"Kirkbrae Residential Care","794 MT DANDENONG Road","KILSYTH","3137","794 MT DANDENONG Road, KILSYTH, VIC, 3137, Australia",-37.810199,145.331975,"RACF"
"Kirrak House","1 Ballieu Street  West","WONTHAGGI","3995","1 Ballieu Street  West, WONTHAGGI, VIC, 3995, Australia",-38.6043664,145.5913433,"RACF"
"Kolor Lodge Hostel","148 WATTON Street","PENSHURST","3289","148 WATTON Street, PENSHURST, VIC, 3289, Australia",-37.876307,142.28203,"RACF"
"Koo Wee Rup Regional Health Service Killara Hostel-","Rossiter Road","KOO WEE RUP","3981","Rossiter Road, KOO WEE RUP, VIC, 3981, Australia",-38.2088646,145.4721489,"RACF"
"Koorooman House Nursing Home","23 Sloan Avenue","LEONGATHA","3953","23 Sloan Avenue, LEONGATHA, VIC, 3953, Australia",-38.4866681,145.9491674,"RACF"
"Koraleigh Nursing Home","Purdey Street","TONGALA","3621","Purdey Street, TONGALA, VIC, 3621, Australia",-36.2510387,144.9576942,"RACF"
"Kowree Nursing Home Unit","128-134 ELIZABETH Street","EDENHOPE","3318","128-134 ELIZABETH Street, EDENHOPE, VIC, 3318, Australia",-37.034981,141.289471,"RACF"
"Kurrajong Lodge","2 ARNOTT Street","HORSHAM","3400","2 ARNOTT Street, HORSHAM, VIC, 3400, Australia",-36.714062,142.208729,"RACF"
"Kyabram Nursing Home - Sheridan","1C WARRAMUNDA Drive","KYABRAM","3620","1C WARRAMUNDA Drive, KYABRAM, VIC, 3620, Australia",-36.316329,145.042543,"RACF"
"Lakes Entrance Care Community","35A LAKEVIEW Drive","LAKES ENTRANCE","3909","35A LAKEVIEW Drive, LAKES ENTRANCE, VIC, 3909, Australia",-37.870309,147.991881,"RACF"
"Lakeview Lodge Hostel","22 Church Street","NAGAMBIE","3608","22 Church Street, NAGAMBIE, VIC, 3608, Australia",-36.780578,145.150090995327,"RACF"
"Lakeview Nursing Home","22 BARREE Street","TALLANGATTA","3700","22 BARREE Street, TALLANGATTA, VIC, 3700, Australia",-36.214196,147.183224,"RACF"
"Langwarrin Community Aged Care","74 POTTS Road","LANGWARRIN","3910","74 POTTS Road, LANGWARRIN, VIC, 3910, Australia",-38.135704,145.209447,"RACF"
"Latrobe Regional Hospital Nursing Home","40 VILLAGE Avenue","TRARALGON","3844","40 VILLAGE Avenue, TRARALGON, VIC, 3844, Australia",-38.218034,146.469139,"RACF"
"Latrobe Valley Village Hostel","5 Ollerton Avenue","MOE","3825","5 Ollerton Avenue, MOE, VIC, 3825, Australia",-38.1793568,146.280681316296,"RACF"
"Latvian Aged Care Facility","60 FRASER Crescent","WANTIRNA SOUTH","3152","60 FRASER Crescent, WANTIRNA SOUTH, VIC, 3152, Australia",-37.87786,145.230562,"RACF"
"Laurina Lodge Hostel","1 ELEANOR Street","HEYFIELD","3858","1 ELEANOR Street, HEYFIELD, VIC, 3858, Australia",-37.976031,146.784454,"RACF"
"Lexington Gardens Aged Care","18 VILLA Road","SPRINGVALE","3171","18 VILLA Road, SPRINGVALE, VIC, 3171, Australia",-37.9492485,145.1401904,"RACF"
"Lifeview Argyle Court","81-83 ARGYLE Avenue","CHELSEA","3196","81-83 ARGYLE Avenue, CHELSEA, VIC, 3196, Australia",-38.052612,145.127942,"RACF"
"Lifeview Emerald Glades","15 EMERALD-MONBULK Road","EMERALD","3782","15 EMERALD-MONBULK Road, EMERALD, VIC, 3782, Australia",-37.925898,145.442624,"RACF"
"Lifeview The Willows","171-175 JELLS Road","WHEELERS HILL","3150","171-175 JELLS Road, WHEELERS HILL, VIC, 3150, Australia",-37.9078193,145.1886021,"RACF"
"Lifeview Willow Wood","135 DUFF Street","CRANBOURNE","3977","135 DUFF Street, CRANBOURNE, VIC, 3977, Australia",-38.101878,145.265513,"RACF"
"Lilydale Aged Care","475 Swansea Road","LILYDALE","3140","475 Swansea Road, LILYDALE, VIC, 3140, Australia",-37.76186545,145.354372049086,"RACF"
"Lionsbrae","29 EVERARD Road","RINGWOOD EAST","3135","29 EVERARD Road, RINGWOOD EAST, VIC, 3135, Australia",-37.802379,145.249097,"RACF"
"Liscombe House","339 St Helena Road","SAINT HELENA","3088","339 St Helena Road, SAINT HELENA, VIC, 3088, Australia",-37.688973,145.130583,"RACF"
"Little Sisters of the Poor St Joseph's Home","112B ST GEORGES Road","NORTHCOTE","3070","112B ST GEORGES Road, NORTHCOTE, VIC, 3070, Australia",-37.7721756,144.9908947,"RACF"
"Logan Lodge (formally known as Swan Hill District Nursing Home)","29 HIGH Street","SWAN HILL","3585","29 HIGH Street, SWAN HILL, VIC, 3585, Australia",-35.339771,143.555572,"RACF"
"Luson - Bloom","61S LAKER Boulevard","CLYDE NORTH","3978","61S LAKER Boulevard, CLYDE NORTH, VIC, 3978, Australia",-38.08916,145.343608,"RACF"
"Luson - Eden Park","31-33 THOMPSON Street","WHITTINGTON","3219","31-33 THOMPSON Street, WHITTINGTON, VIC, 3219, Australia",-38.177631,144.387399,"RACF"
"LUSON The Vue","17 Reserve Road","GROVEDALE","3216","17 Reserve Road, GROVEDALE, VIC, 3216, Australia",-38.204978,144.342942,"RACF"
"Lynbrook Park Aged Care","42 OLIVE Road","LYNBROOK","3975","42 OLIVE Road, LYNBROOK, VIC, 3975, Australia",-38.047064,145.260665,"RACF"
"Lynden Aged Care","49 LYNDEN Street","CAMBERWELL","3124","49 LYNDEN Street, CAMBERWELL, VIC, 3124, Australia",-37.841574,145.0862,"RACF"
"Lyndoch Living - Residential Care","Hopkins Road","WARRNAMBOOL","3280","Hopkins Road, WARRNAMBOOL, VIC, 3280, Australia",-38.3945186,142.5072888,"RACF"
"Lyrebird Village for the Aged","8 NEERIM Street","DROUIN","3818","8 NEERIM Street, DROUIN, VIC, 3818, Australia",-38.134686,145.864676,"RACF"
"Macpherson Smith Residential Care","37 SLOANE Street","STAWELL","3380","37 SLOANE Street, STAWELL, VIC, 3380, Australia",-37.0597,142.779541,"RACF"
"MACS - Home Care Services","100 WEDDELL Road","NORTH GEELONG","3215","100 WEDDELL Road, NORTH GEELONG, VIC, 3215, Australia",-38.125252,144.346699,"RACF"
"Maculata Place Residential Aged Care Service","124 MACULATA Drive","SHEPPARTON","3630","124 MACULATA Drive, SHEPPARTON, VIC, 3630, Australia",-36.364065,145.391992,"RACF"
"Maldon Hospital - Mountview Nursing Home","2 CHAPEL Street","MALDON","3463","2 CHAPEL Street, MALDON, VIC, 3463, Australia",-36.993961,144.065048,"RACF"
"Mallee Track Health & Community Service - Ouyen","28 Britt Street","OUYEN","3490","28 Britt Street, OUYEN, VIC, 3490, Australia",-35.073722,142.313072,"RACF"
"Mallee Track Health & Community Service - Sea Lake","33-43 MCCLELLAND Avenue","SEA LAKE","3533","33-43 MCCLELLAND Avenue, SEA LAKE, VIC, 3533, Australia",-35.500881,142.859097,"RACF"
"Manangatang Multi-Purpose Service","37-39 PIONEER Street","MANANGATANG","3546","37-39 PIONEER Street, MANANGATANG, VIC, 3546, Australia",-35.051063,142.881088,"RACF"
"MannaCare Cassia House","371 MANNINGHAM Road","DONCASTER","3108","371 MANNINGHAM Road, DONCASTER, VIC, 3108, Australia",-37.77597,145.118253,"RACF"
"MannaCare Doncaster Melaleuca Lodge","383 Manningham Road","DONCASTER","3108","383 Manningham Road, DONCASTER, VIC, 3108, Australia",-37.776277,145.118603,"RACF"
"Manor Court Werribee Aged Care","5 HOGAN Grove","WERRIBEE","3030","5 HOGAN Grove, WERRIBEE, VIC, 3030, Australia",-37.896597,144.656975,"RACF"
"Margery Cole Residential Care Service","Matthews Crescent","TRARALGON","3844","Matthews Crescent, TRARALGON, VIC, 3844, Australia",-38.1952449,146.5490013,"RACF"
"Marina Residential Aged Care Service","385 BLACKSHAWS Road","ALTONA NORTH","3025","385 BLACKSHAWS Road, ALTONA NORTH, VIC, 3025, Australia",-37.83164585,144.846483269043,"RACF"
"Martin Luther Homes","67 Mt View Road","THE BASIN","3154","67 Mt View Road, THE BASIN, VIC, 3154, Australia",-37.859447,145.305289,"RACF"
"Mary Guthrie House Nursing Home","1 YARRA Boulevard","KEW","3101","1 YARRA Boulevard, KEW, VIC, 3101, Australia",-37.789918,145.025906,"RACF"
"May Noonan Centre by Lyndoch Living","1 FOLEY Street","TERANG","3264","1 FOLEY Street, TERANG, VIC, 3264, Australia",-38.249056,142.918415,"RACF"
"Mayflower Brighton - Residential Aged Care","7 Centre Road","BRIGHTON EAST","3187","7 Centre Road, BRIGHTON EAST, VIC, 3187, Australia",-37.914592,145.007997,"RACF"
"Mayflower Reservoir","56 Elliot Street","RESERVOIR","3073","56 Elliot Street, RESERVOIR, VIC, 3073, Australia",-37.704794,144.995587,"RACF"
"McKellar Centre","45-95 BALLARAT Road","NORTH GEELONG","3215","45-95 BALLARAT Road, NORTH GEELONG, VIC, 3215, Australia",-38.12167335,144.336188855196,"RACF"
"McLellan House Hostel","2 ROBINSON Street","JACANA","3047","2 ROBINSON Street, JACANA, VIC, 3047, Australia",-37.68582,144.912656,"RACF"
"Meadow Heights Care Community","90 LIGHTWOOD Crescent","MEADOW HEIGHTS","3048","90 LIGHTWOOD Crescent, MEADOW HEIGHTS, VIC, 3048, Australia",-37.644312,144.91395,"RACF"
"mecwacare Annie's Court","3905 FRANKSTON-FLINDERS Road","SHOREHAM","3916","3905 FRANKSTON-FLINDERS Road, SHOREHAM, VIC, 3916, Australia",-38.416372,145.050815,"RACF"
"mecwacare Ballan Hostel","168 INGLIS Street","BALLAN","3342","168 INGLIS Street, BALLAN, VIC, 3342, Australia",-37.599953,144.221752,"RACF"
"mecwacare Ballan Nursing Home","33 COWIE Street","BALLAN","3342","33 COWIE Street, BALLAN, VIC, 3342, Australia",-37.599578,144.222389,"RACF"
"mecwacare Calwell Manor","111 COUNTRY CLUB Drive","SAFETY BEACH","3936","111 COUNTRY CLUB Drive, SAFETY BEACH, VIC, 3936, Australia",-38.3286106,144.988290283567,"RACF"
"mecwacare Elstoft House","12-14 BEULAH Street","HAMLYN HEIGHTS","3215","12-14 BEULAH Street, HAMLYN HEIGHTS, VIC, 3215, Australia",-38.12005,144.323483,"RACF"
"mecwacare John Atchison Centre","312-318 Derrimut Road","HOPPERS CROSSING","3029","312-318 Derrimut Road, HOPPERS CROSSING, VIC, 3029, Australia",-37.857696,144.687212,"RACF"
"mecwacare Jubilee House","52 Northcote Avenue","CAULFIELD NORTH","3161","52 Northcote Avenue, CAULFIELD NORTH, VIC, 3161, Australia",-37.878237,145.02938,"RACF"
"mecwacare Malvern Centre","1245-1247 Malvern Road","MALVERN","3144","1245-1247 Malvern Road, MALVERN, VIC, 3144, Australia",-37.852124,145.03493,"RACF"
"mecwacare Noel Miller Centre","9-15 KENT Street","GLEN IRIS","3146","9-15 KENT Street, GLEN IRIS, VIC, 3146, Australia",-37.856046,145.047051,"RACF"
"mecwacare O'Mara House","15 HUNTER Road","TRARALGON","3844","15 HUNTER Road, TRARALGON, VIC, 3844, Australia",-38.2092904,146.548829583247,"RACF"
"mecwacare Park Hill","160 Mornington-Tyabb Road","MORNINGTON","3931","160 Mornington-Tyabb Road, MORNINGTON, VIC, 3931, Australia",-38.237777,145.0605483,"RACF"
"mecwacare Rositano House","273 CHURCH Street","RICHMOND","3121","273 CHURCH Street, RICHMOND, VIC, 3121, Australia",-37.8201036,144.9990484,"RACF"
"mecwacare Squires Place","375-379 Mason Street","ALTONA NORTH","3025","375-379 Mason Street, ALTONA NORTH, VIC, 3025, Australia",-37.83925,144.852226,"RACF"
"mecwacare Trescowthick Centre","70 CHARLES Street","PRAHRAN","3181","70 CHARLES Street, PRAHRAN, VIC, 3181, Australia",-37.848927,144.989541,"RACF"
"mecwacare Vincent House","125-135 KENNY Street","WESTMEADOWS","3049","125-135 KENNY Street, WESTMEADOWS, VIC, 3049, Australia",-37.674561,144.888643,"RACF"
"Medina Manor Aged Care","200A SMITH Street","THORNBURY","3071","200A SMITH Street, THORNBURY, VIC, 3071, Australia",-37.755712,144.983785,"RACF"
"Mekong Cairnlea Vietnamese Aged Care","133 CAIRNLEA Drive","CAIRNLEA","3023","133 CAIRNLEA Drive, CAIRNLEA, VIC, 3023, Australia",-37.755875,144.791983,"RACF"
"Mekong Vietnamese Aged Care","8 TROTT Place","KEILOR EAST","3033","8 TROTT Place, KEILOR EAST, VIC, 3033, Australia",-37.736114,144.857292,"RACF"
"Melaleuca Aged Care","1 WATCHORN Road","COWES","3922","1 WATCHORN Road, COWES, VIC, 3922, Australia",-38.45531225,145.241408440012,"RACF"
"Melbourne Hebrew Memorial Nursing Home (Gary Smorgon House) - Jewish Care (VIC)","4-8 Freeman Street","CAULFIELD","3162","4-8 Freeman Street, CAULFIELD, VIC, 3162, Australia",-37.8866054,145.0301098,"RACF"
"Menarock LIFE Camberwell","15 CORNELL Street","CAMBERWELL","3124","15 CORNELL Street, CAMBERWELL, VIC, 3124, Australia",-37.839,145.08824,"RACF"
"Menarock LIFE Glen Waverley","982 HIGH STREET Road","GLEN WAVERLEY","3150","982 HIGH STREET Road, GLEN WAVERLEY, VIC, 3150, Australia",-37.8770517,145.1881753,"RACF"
"Menarock LIFE Heathmont","27-29 The Greenway","HEATHMONT","3135","27-29 The Greenway, HEATHMONT, VIC, 3135, Australia",-37.8363758,145.2502774,"RACF"
"Menarock LIFE Highett (Rosehill)","12 MAXFLO Court","HIGHETT","3190","12 MAXFLO Court, HIGHETT, VIC, 3190, Australia",-37.952929,145.031902,"RACF"
"Menarock LIFE Lower Templestowe (Emmavale)","7 ELBERTA Avenue","TEMPLESTOWE LOWER","3107","7 ELBERTA Avenue, TEMPLESTOWE LOWER, VIC, 3107, Australia",-37.7733516,145.1165773,"RACF"
"Menarock LIFE Pakenham (McGregor Gardens)","11 MCGREGOR Road","PAKENHAM","3810","11 MCGREGOR Road, PAKENHAM, VIC, 3810, Australia",-38.07521,145.477756,"RACF"
"Menarock LIFE Shepparton","29-35 PINE Road","SHEPPARTON","3630","29-35 PINE Road, SHEPPARTON, VIC, 3630, Australia",-36.357288,145.407331,"RACF"
"Menarock LIFE Templestowe (Willowbrae)","81-85 PORTER Street","TEMPLESTOWE","3106","81-85 PORTER Street, TEMPLESTOWE, VIC, 3106, Australia",-37.752192,145.133889,"RACF"
"Menarock LIFE Upper Beaconsfield (Salisbury House)","3 SALISBURY Road","BEACONSFIELD UPPER","3808","3 SALISBURY Road, BEACONSFIELD UPPER, VIC, 3808, Australia",-38.0057855,145.4112591,"RACF"
"Menarock LIFE Upper Ferntree Gully (Sherbrooke)","18 TARANA Avenue","UPPER FERNTREE GULLY","3156","18 TARANA Avenue, UPPER FERNTREE GULLY, VIC, 3156, Australia",-37.897847,145.297711,"RACF"
"Mercy Health Bethlehem Home for the Aged","36-42 SPECIMEN HILL Road","GOLDEN SQUARE","3555","36-42 SPECIMEN HILL Road, GOLDEN SQUARE, VIC, 3555, Australia",-36.76745,144.250353,"RACF"
"Mercy Place Abbotsford","2 CLARKE Street","ABBOTSFORD","3067","2 CLARKE Street, ABBOTSFORD, VIC, 3067, Australia",-37.802132,145.002114,"RACF"
"Mercy Place Ave Maria (Shepparton)","25 Graham Street","SHEPPARTON","3630","25 Graham Street, SHEPPARTON, VIC, 3630, Australia",-36.362279,145.404726,"RACF"
"Mercy Place Ballarat","60 CORBETT Street","BALLARAT EAST","3350","60 CORBETT Street, BALLARAT EAST, VIC, 3350, Australia",-37.560492,143.872752,"RACF"
"Mercy Place Boronia","72 KERR Crescent","MONTROSE","3765","72 KERR Crescent, MONTROSE, VIC, 3765, Australia",-37.813526,145.35218,"RACF"
"Mercy Place Colac","83-99 QUEEN Street","COLAC","3250","83-99 QUEEN Street, COLAC, VIC, 3250, Australia",-38.342823,143.592076,"RACF"
"Mercy Place Corben","9-15 BRINDISI Street","MENTONE","3194","9-15 BRINDISI Street, MENTONE, VIC, 3194, Australia",-37.983932,145.062172,"RACF"
"Mercy Place Dandenong","82 MCCRAE Street","DANDENONG","3175","82 MCCRAE Street, DANDENONG, VIC, 3175, Australia",-37.99122,145.220151,"RACF"
"Mercy Place East Melbourne","22 VERONA Lane","EAST MELBOURNE","3002","22 VERONA Lane, EAST MELBOURNE, VIC, 3002, Australia",-37.812386,144.984173,"RACF"
"Mercy Place Fernhill","18-20 FERNHILL Road","SANDRINGHAM","3191","18-20 FERNHILL Road, SANDRINGHAM, VIC, 3191, Australia",-37.95149,145.007582,"RACF"
"Mercy Place Keon Park (Reservoir)","15 TUNALEY Parade","RESERVOIR","3073","15 TUNALEY Parade, RESERVOIR, VIC, 3073, Australia",-37.6971589,145.0253319,"RACF"
"Mercy Place Lynbrook","500 EVANS Road","LYNBROOK","3975","500 EVANS Road, LYNBROOK, VIC, 3975, Australia",-38.064592,145.261667,"RACF"
"Mercy Place Montrose (Nursing Home)","991 MOUNT DANDENONG TOURIST Road","MONTROSE","3765","991 MOUNT DANDENONG TOURIST Road, MONTROSE, VIC, 3765, Australia",-37.8135729,145.3505684,"RACF"
"Mercy Place Nixon","27 CHUTE Street","MORDIALLOC","3195","27 CHUTE Street, MORDIALLOC, VIC, 3195, Australia",-38.00665215,145.091821403514,"RACF"
"Mercy Place Northcliffe","10-12 Northcliffe Road","EDITHVALE","3196","10-12 Northcliffe Road, EDITHVALE, VIC, 3196, Australia",-38.0424635,145.1129579,"RACF"
"Mercy Place Parkville","1 WILLAM Street","PARKVILLE","3052","1 WILLAM Street, PARKVILLE, VIC, 3052, Australia",-37.776684,144.938936,"RACF"
"Mercy Place Rice Village","7 MOYLAN Loop","MARSHALL","3216","7 MOYLAN Loop, MARSHALL, VIC, 3216, Australia",-38.198711,144.360929,"RACF"
"Mercy Place Rosebud","1497 POINT NEPEAN Road","ROSEBUD","3939","1497 POINT NEPEAN Road, ROSEBUD, VIC, 3939, Australia",-38.361051,144.886513,"RACF"
"Mercy Place Shepparton","351-359 ARCHER Street","SHEPPARTON","3630","351-359 ARCHER Street, SHEPPARTON, VIC, 3630, Australia",-36.406656,145.408304,"RACF"
"Mercy Place Templestowe","16 Herlihys Road","TEMPLESTOWE LOWER","3107","16 Herlihys Road, TEMPLESTOWE LOWER, VIC, 3107, Australia",-37.760782,145.122141,"RACF"
"Mercy Place Warrnambool","16 HOPETOUN Road","WARRNAMBOOL","3280","16 HOPETOUN Road, WARRNAMBOOL, VIC, 3280, Australia",-38.369065,142.473669,"RACF"
"Mercy Place Wyndham","39 DEUTGAM Street","WERRIBEE","3030","39 DEUTGAM Street, WERRIBEE, VIC, 3030, Australia",-37.90819,144.657197,"RACF"
"Merindah Lodge Aged Care Facility","1-3 YORK Street","CAMPERDOWN","3260","1-3 YORK Street, CAMPERDOWN, VIC, 3260, Australia",-38.238005,143.13912,"RACF"
"MiCare - Avondrust Lodge","1105 Frankston Dandenong Road","CARRUM DOWNS","3201","1105 Frankston Dandenong Road, CARRUM DOWNS, VIC, 3201, Australia",-38.089849,145.181635,"RACF"
"MiCare - Margriet Manor","722 MT DANDENONG Road","KILSYTH","3137","722 MT DANDENONG Road, KILSYTH, VIC, 3137, Australia",-37.807706,145.325998,"RACF"
"MiCare - Overbeek Lodge","736 Mt Dandenong Road","KILSYTH","3137","736 Mt Dandenong Road, KILSYTH, VIC, 3137, Australia",-37.808571,145.326955,"RACF"
"Millhaven Lodge","54-64 Princes Highway","PAKENHAM","3810","54-64 Princes Highway, PAKENHAM, VIC, 3810, Australia",-38.0672443,145.4688822,"RACF"
"Mitchell House Hostel","127 Vary Street","MORWELL","3840","127 Vary Street, MORWELL, VIC, 3840, Australia",-38.222676,146.426952,"RACF"
"Monda Lodge Hostel","32-36 MCGREGOR Avenue","HEALESVILLE","3777","32-36 MCGREGOR Avenue, HEALESVILLE, VIC, 3777, Australia",-37.645208,145.528198,"RACF"
"Montclaire Aged Care","18 MONTCLAIR Avenue","BRIGHTON","3186","18 MONTCLAIR Avenue, BRIGHTON, VIC, 3186, Australia",-37.902394,145.003978,"RACF"
"Mooraleigh Hostel","748 CENTRE Road","BENTLEIGH EAST","3165","748 CENTRE Road, BENTLEIGH EAST, VIC, 3165, Australia",-37.921796,145.062735,"RACF"
"Mooroolbark Aged Persons Mental Health Residential Care Facility","73A CAMBRIDGE Road","MOOROOLBARK","3138","73A CAMBRIDGE Road, MOOROOLBARK, VIC, 3138, Australia",-37.7925441,145.318660521905,"RACF"
"Mooroopna Place Residential Aged Care Service","30-50 Knight Street","MOOROOPNA","3629","30-50 Knight Street, MOOROOPNA, VIC, 3629, Australia",-36.387403,145.351525,"RACF"
"Moran Roxburgh Park","3 Wedgewood Road","ROXBURGH PARK","3064","3 Wedgewood Road, ROXBURGH PARK, VIC, 3064, Australia",-37.619916,144.935619,"RACF"
"Mornington Bay Care Community","185 RACECOURSE Road","MOUNT MARTHA","3934","185 RACECOURSE Road, MOUNT MARTHA, VIC, 3934, Australia",-38.25035,145.058859,"RACF"
"Morrie Evans Wing Nursing Home","2 Coster Street","BENALLA","3672","2 Coster Street, BENALLA, VIC, 3672, Australia",-36.553388,145.989356,"RACF"
"Mount Clear Aged Care","112-114 Whitehorse Road","MOUNT CLEAR","3350","112-114 Whitehorse Road, MOUNT CLEAR, VIC, 3350, Australia",-37.603497,143.864861,"RACF"
"Mount View Aged Care Facility","13 AUSTIN Avenue","TERANG","3264","13 AUSTIN Avenue, TERANG, VIC, 3264, Australia",-38.239376,142.902493,"RACF"
"Moyne Health Services-Belfast House","97 REGENT Street","PORT FAIRY","3284","97 REGENT Street, PORT FAIRY, VIC, 3284, Australia",-38.380658,142.227311,"RACF"
"Moyne Health Services-Moyneyana House","31 COLLEGE Street","PORT FAIRY","3284","31 COLLEGE Street, PORT FAIRY, VIC, 3284, Australia",-38.383438,142.226093,"RACF"
"Moyola Lodge Hostel","60 Hunter Street","TATURA","3616","60 Hunter Street, TATURA, VIC, 3616, Australia",-36.4383117,145.2240066,"RACF"
"Myrtleford Lodge Aged Care","73 PRINCE Street","MYRTLEFORD","3737","73 PRINCE Street, MYRTLEFORD, VIC, 3737, Australia",-36.5573633,146.721527946763,"RACF"
"Napier Street Aged Care Services","179-197 NAPIER Street","SOUTH MELBOURNE","3205","179-197 NAPIER Street, SOUTH MELBOURNE, VIC, 3205, Australia",-37.8369,144.961256,"RACF"
"Nazareth House Ballarat","218 Mill Street","BALLARAT","3350","218 Mill Street, BALLARAT, VIC, 3350, Australia",-37.553786,143.845017,"RACF"
"Nazareth House Camberwell","16 CORNELL Street","CAMBERWELL","3124","16 CORNELL Street, CAMBERWELL, VIC, 3124, Australia",-37.839394,145.088808,"RACF"
"Nellie Melba Retirement Village","2 Collegium Avenue","WHEELERS HILL","3150","2 Collegium Avenue, WHEELERS HILL, VIC, 3150, Australia",-37.9058641,145.165282539788,"RACF"
"Newmans on the Park Aged Care","33 NEWMANS Road","TEMPLESTOWE","3106","33 NEWMANS Road, TEMPLESTOWE, VIC, 3106, Australia",-37.751732,145.15301,"RACF"
"Noble Gardens Residential Aged Care","55 THOMAS Street","NOBLE PARK","3174","55 THOMAS Street, NOBLE PARK, VIC, 3174, Australia",-37.972635,145.17784,"RACF"
"Noble Manor Residential Aged Care","33 Frank Street","NOBLE PARK","3174","33 Frank Street, NOBLE PARK, VIC, 3174, Australia",-37.9676778,145.1738309,"RACF"
"North Western District Private Nursing Home","14 SOUTH CIRCULAR Road","GLADSTONE PARK","3043","14 SOUTH CIRCULAR Road, GLADSTONE PARK, VIC, 3043, Australia",-37.686987,144.886168,"RACF"
"Northern Gardens Aged Care","827-867 SYDNEY Road","COBURG NORTH","3058","827-867 SYDNEY Road, COBURG NORTH, VIC, 3058, Australia",-37.729251,144.9635,"RACF"
"Northside Aged Persons Mental Health Residential Care Facility","320 BURWOOD Highway","BURWOOD EAST","3151","320 BURWOOD Highway, BURWOOD EAST, VIC, 3151, Australia",-37.854379,145.16248,"RACF"
"Numurkah Pioneers Memorial Lodge","13 KATAMATITE-NATHALIA Road","NUMURKAH","3636","13 KATAMATITE-NATHALIA Road, NUMURKAH, VIC, 3636, Australia",-36.099038,145.445136,"RACF"
"Nyah District Aged Care Service (Jacaranda Lodge)","1 MONASH Avenue","NYAH WEST","3595","1 MONASH Avenue, NYAH WEST, VIC, 3595, Australia",-35.185888,143.357485,"RACF"
"Oaklea Hall Aged Care","4-8 EARLSTOWN Road","OAKLEIGH","3166","4-8 EARLSTOWN Road, OAKLEIGH, VIC, 3166, Australia",-37.899971,145.085382,"RACF"
"Oasis Aged Care","1039 KARADOC Avenue","IRYMPLE","3498","1039 KARADOC Avenue, IRYMPLE, VIC, 3498, Australia",-34.235032,142.161159,"RACF"
"Ocean Mist Aged Care","370 GROSSMANS Road","BELLBRAE","3228","370 GROSSMANS Road, BELLBRAE, VIC, 3228, Australia",-38.31695425,144.278405098059,"RACF"
"Olivet Care","7 Rupert Street","RINGWOOD","3134","7 Rupert Street, RINGWOOD, VIC, 3134, Australia",-37.80779965,145.238648200517,"RACF"
"Omeo District Health","9 EASTON Street","OMEO","3898","9 EASTON Street, OMEO, VIC, 3898, Australia",-37.098144,147.596482,"RACF"
"ORH -Residential Aged Care - Waratah Lodge (high care), Lochiel House (low care), respite care & TCP","104 BOUNDARY Road","ORBOST","3888","104 BOUNDARY Road, ORBOST, VIC, 3888, Australia",-37.701552,148.464828,"RACF"
"Ottoman Village Aged Care","66 COLERAINE Street","BROADMEADOWS","3047","66 COLERAINE Street, BROADMEADOWS, VIC, 3047, Australia",-37.676374,144.915684,"RACF"
"Outlook Gardens Aged Care","504 POLICE Road","DANDENONG NORTH","3175","504 POLICE Road, DANDENONG NORTH, VIC, 3175, Australia",-37.939386,145.21169,"RACF"
"P.S. Hobson Nursing Home","302 Gillies Street","WENDOUREE","3355","302 Gillies Street, WENDOUREE, VIC, 3355, Australia",-37.536245,143.82303,"RACF"
"Park Lane Croydon","295-299 MAROONDAH Highway","CROYDON","3136","295-299 MAROONDAH Highway, CROYDON, VIC, 3136, Australia",-37.789003,145.262515,"RACF"
"Parkdale Aged Care","43-45 HERBERT Street","PARKDALE","3195","43-45 HERBERT Street, PARKDALE, VIC, 3195, Australia",-37.996642,145.077306,"RACF"
"Parkland House Hostel","21 DELACOMBE Way","WILLAURA","3379","21 DELACOMBE Way, WILLAURA, VIC, 3379, Australia",-37.54634,142.745767,"RACF"
"Parkvilla Aged Care Facility","64-68 PARK Street","TATURA","3616","64-68 PARK Street, TATURA, VIC, 3616, Australia",-36.4392195,145.225659407703,"RACF"
"Paynesville Gardens Care Community","3-5 FORT KING Road","PAYNESVILLE","3880","3-5 FORT KING Road, PAYNESVILLE, VIC, 3880, Australia",-37.906314,147.721777,"RACF"
"Penshurst Nursing Home","Watton Street","PENSHURST","3289","Watton Street, PENSHURST, VIC, 3289, Australia",-37.8764378,142.2961006,"RACF"
"Polish Retirement Home","3-5 Percival Street","BAYSWATER","3153","3-5 Percival Street, BAYSWATER, VIC, 3153, Australia",-37.8508732,145.2732502,"RACF"
"Prague House","253 COTHAM Road","KEW","3101","253 COTHAM Road, KEW, VIC, 3101, Australia",-37.809165,145.051989,"RACF"
"Princes Court Ltd","27 Princes Street","MILDURA","3500","27 Princes Street, MILDURA, VIC, 3500, Australia",-34.192032,142.148968,"RACF"
"Princeton View","29 HEATHFIELD Road","BRIGHTON EAST","3187","29 HEATHFIELD Road, BRIGHTON EAST, VIC, 3187, Australia",-37.927268,145.008,"RACF"
"Prom Country House","9 O'Connell Road","FOSTER","3960","9 O'Connell Road, FOSTER, VIC, 3960, Australia",-38.659419,146.208109,"RACF"
"Queen Elizabeth Centre (Steele Haughton Unit)","102 Ascot Street  South","BALLARAT","3350","102 Ascot Street  South, BALLARAT, VIC, 3350, Australia",-37.56359855,143.842623336023,"RACF"
"Queen Elizabeth Village Hostel (W.B. Messer)","302 Gillies Street  North","WENDOUREE","3355","302 Gillies Street  North, WENDOUREE, VIC, 3355, Australia",-37.536245,143.82303,"RACF"
"R. M. Begg Kyneton Aged Care","27-35 EPPING Street","KYNETON","3444","27-35 EPPING Street, KYNETON, VIC, 3444, Australia",-37.25133505,144.461312964166,"RACF"
"Rainbow Bush Nursing Home Annexe","2 SWINBOURNE Avenue","RAINBOW","3424","2 SWINBOURNE Avenue, RAINBOW, VIC, 3424, Australia",-35.9037543,141.995343513811,"RACF"
"Rainbow Bush Nursing Hospital Hostel","12 SANDERS Street","RAINBOW","3424","12 SANDERS Street, RAINBOW, VIC, 3424, Australia",-35.9039,141.995027,"RACF"
"Rangeview Private Nursing Home","15-17 MASON Street","WANGARATTA","3677","15-17 MASON Street, WANGARATTA, VIC, 3677, Australia",-36.375382,146.304171,"RACF"
"Regis Alawarra Lodge","220 Middleborough Road","BLACKBURN SOUTH","3130","220 Middleborough Road, BLACKBURN SOUTH, VIC, 3130, Australia",-37.838071,145.13835,"RACF"
"Regis Armadale","607-613 Dandenong Road","ARMADALE","3143","607-613 Dandenong Road, ARMADALE, VIC, 3143, Australia",-37.865437,145.026566,"RACF"
"Regis Blackburn","40 CENTRAL Road","BLACKBURN","3130","40 CENTRAL Road, BLACKBURN, VIC, 3130, Australia",-37.82393,145.159919,"RACF"
"Regis Brighton","161 MALE Street","BRIGHTON","3186","161 MALE Street, BRIGHTON, VIC, 3186, Australia",-37.90695,145.005233,"RACF"
"Regis Cranbourne","18 SHERWOOD Road","JUNCTION VILLAGE","3977","18 SHERWOOD Road, JUNCTION VILLAGE, VIC, 3977, Australia",-38.13610875,145.291588900431,"RACF"
"Regis Dandenong North","5 Bakers Road","DANDENONG NORTH","3175","5 Bakers Road, DANDENONG NORTH, VIC, 3175, Australia",-37.954413,145.19668,"RACF"
"Regis East Malvern","400 WAVERLEY Road","MALVERN EAST","3145","400 WAVERLEY Road, MALVERN EAST, VIC, 3145, Australia",-37.878018,145.063655,"RACF"
"Regis Fawkner","101F MAJOR Road","FAWKNER","3060","101F MAJOR Road, FAWKNER, VIC, 3060, Australia",-37.707044,144.963429,"RACF"
"Regis Frankston","93 ASHLEIGH Avenue","FRANKSTON","3199","93 ASHLEIGH Avenue, FRANKSTON, VIC, 3199, Australia",-38.1402968,145.1477526,"RACF"
"Regis Macleod","120 Somers Avenue","MACLEOD","3085","120 Somers Avenue, MACLEOD, VIC, 3085, Australia",-37.718661,145.075977,"RACF"
"Regis Ontario","382-404 ONTARIO Avenue","MILDURA","3500","382-404 ONTARIO Avenue, MILDURA, VIC, 3500, Australia",-34.195614,142.131272,"RACF"
"Regis Ringwood","294 Maroondah Highway","RINGWOOD","3134","294 Maroondah Highway, RINGWOOD, VIC, 3134, Australia",-37.80905615,145.240933910739,"RACF"
"Regis Rosebud","1 Wyuna Street","CAPEL SOUND","3940","1 Wyuna Street, CAPEL SOUND, VIC, 3940, Australia",-38.370837,144.882873,"RACF"
"Regis Sandringham","37 Bay Road","SANDRINGHAM","3191","37 Bay Road, SANDRINGHAM, VIC, 3191, Australia",-37.951893,145.006486,"RACF"
"Regis Shenley Manor","440 Camberwell Road","CAMBERWELL","3124","440 Camberwell Road, CAMBERWELL, VIC, 3124, Australia",-37.837932,145.064044,"RACF"
"Regis Sunraysia","253 10th Street","MILDURA","3500","253 10th Street, MILDURA, VIC, 3500, Australia",-34.17925,142.148258,"RACF"
"Riddell Gardens Aged Care","10 SPAVIN Drive","SUNBURY","3429","10 SPAVIN Drive, SUNBURY, VIC, 3429, Australia",-37.562343,144.715873,"RACF"
"Riverside Campus Residential Aged Care","39 LATJE Road","ROBINVALE","3549","39 LATJE Road, ROBINVALE, VIC, 3549, Australia",-34.582551,142.774159,"RACF"
"Riverside House","2 RIVER Street","RICHMOND","3121","2 RIVER Street, RICHMOND, VIC, 3121, Australia",-37.8146615,145.012738153309,"RACF"
"Riverview Aged Care","1 AITKEN Avenue","DONALD","3480","1 AITKEN Avenue, DONALD, VIC, 3480, Australia",-36.365122,142.975116,"RACF"
"Robinvale Multi-Purpose Service","128 Latje Road","ROBINVALE","3549","128 Latje Road, ROBINVALE, VIC, 3549, Australia",-34.5841317,142.78149723433,"RACF"
"Rochester and District Hostel","1 PASCOE Street","ROCHESTER","3561","1 PASCOE Street, ROCHESTER, VIC, 3561, Australia",-36.365814,144.697936,"RACF"
"Rosary Home","138 Odessa Avenue","KEILOR DOWNS","3038","138 Odessa Avenue, KEILOR DOWNS, VIC, 3038, Australia",-37.715408,144.805889,"RACF"
"Rose Lodge","225-233 GRAHAM Street","WONTHAGGI","3995","225-233 GRAHAM Street, WONTHAGGI, VIC, 3995, Australia",-38.607126,145.582704,"RACF"
"Rosebank Hostel","43 STATION Street","YEA","3717","43 STATION Street, YEA, VIC, 3717, Australia",-37.213958,145.430953,"RACF"
"Rosebrook Aged Care","441 WATERFALL GULLY Road","ROSEBUD","3939","441 WATERFALL GULLY Road, ROSEBUD, VIC, 3939, Australia",-38.377474,144.916382,"RACF"
"Royal Freemasons Bacchus Marsh","58 GREY Street","DARLEY","3340","58 GREY Street, DARLEY, VIC, 3340, Australia",-37.657843,144.432128,"RACF"
"Royal Freemasons Ballarat","124 SPENCER Street","CANADIAN","3350","124 SPENCER Street, CANADIAN, VIC, 3350, Australia",-37.577025,143.882423,"RACF"
"Royal Freemasons Benalla","107 THOMAS Street","BENALLA","3672","107 THOMAS Street, BENALLA, VIC, 3672, Australia",-36.564311,145.972993,"RACF"
"Royal Freemasons Bendigo","61 Alder Street","KANGAROO FLAT","3555","61 Alder Street, KANGAROO FLAT, VIC, 3555, Australia",-36.783726,144.240275,"RACF"
"Royal Freemasons Centennial Lodge","13 LEWIS Road","WANTIRNA SOUTH","3152","13 LEWIS Road, WANTIRNA SOUTH, VIC, 3152, Australia",-37.8578926,145.2530953,"RACF"
"Royal Freemasons Coppin Centre","45 MOUBRAY Street","MELBOURNE","3004","45 MOUBRAY Street, MELBOURNE, VIC, 3004, Australia",-37.8480494,144.9832141,"RACF"
"Royal Freemasons Darvall Lodge","519 PRINCES Highway","NOBLE PARK","3174","519 PRINCES Highway, NOBLE PARK, VIC, 3174, Australia",-37.952414,145.177528,"RACF"
"Royal Freemasons Elizabeth Gardens","2 Elizabeth Street","BURWOOD","3125","2 Elizabeth Street, BURWOOD, VIC, 3125, Australia",-37.857033,145.09569,"RACF"
"Royal Freemasons Elizabeth Gardens Hostel","2-8 ELIZABETH Street","BURWOOD","3125","2-8 ELIZABETH Street, BURWOOD, VIC, 3125, Australia",-37.857033,145.09569,"RACF"
"Royal Freemasons Flora Hill","64 SOMERVILLE Street","BENDIGO","3550","64 SOMERVILLE Street, BENDIGO, VIC, 3550, Australia",-36.775268,144.289498,"RACF"
"Royal Freemasons Footscray Aged Care","25 MEPHAN Street","FOOTSCRAY","3011","25 MEPHAN Street, FOOTSCRAY, VIC, 3011, Australia",-37.7867733,144.884613194947,"RACF"
"Royal Freemasons Gregory Lodge","2-58 NEWMARKET Street","FLEMINGTON","3031","2-58 NEWMARKET Street, FLEMINGTON, VIC, 3031, Australia",-37.7870225,144.9271444,"RACF"
"Royal Freemasons Moe","1C HAIGH Street","MOE","3825","1C HAIGH Street, MOE, VIC, 3825, Australia",-38.173985,146.269233,"RACF"
"Royal Freemasons Monash Gardens","355 WELLINGTON Road","MULGRAVE","3170","355 WELLINGTON Road, MULGRAVE, VIC, 3170, Australia",-37.919109,145.165703,"RACF"
"Royal Freemasons Mount Martha Valley","130 COUNTRY CLUB Drive","SAFETY BEACH","3936","130 COUNTRY CLUB Drive, SAFETY BEACH, VIC, 3936, Australia",-38.3275969,144.985013368216,"RACF"
"Royal Freemasons Sale","28 SURKITT Boulevard","SALE","3850","28 SURKITT Boulevard, SALE, VIC, 3850, Australia",-38.079078,147.067065,"RACF"
"Royal Freemasons Springtime-Sydenham","41 MANCHESTER Drive","SYDENHAM","3037","41 MANCHESTER Drive, SYDENHAM, VIC, 3037, Australia",-37.684799,144.759847,"RACF"
"Rupanyup District Nursing Home","89 CROMIE Street","RUPANYUP","3388","89 CROMIE Street, RUPANYUP, VIC, 3388, Australia",-36.6365522,142.6319211,"RACF"
"Sacred Heart Community","101 Grey Street","ST KILDA","3182","101 Grey Street, ST KILDA, VIC, 3182, Australia",-37.86354,144.980783,"RACF"
"Sale Gardens Care Community","12-14 Sale-Maffra Road","SALE","3850","12-14 Sale-Maffra Road, SALE, VIC, 3850, Australia",-38.1050358,147.0647902,"RACF"
"Samarinda Ashburton Aged Services Inc","286 HIGH Street","ASHBURTON","3147","286 HIGH Street, ASHBURTON, VIC, 3147, Australia",-37.86453675,145.085593409103,"RACF"
"Samkay Health Tyabb","30 THE CRESCENT","TYABB","3913","30 THE CRESCENT, TYABB, VIC, 3913, Australia",-38.263925,145.193555,"RACF"
"San Carlo Homes for the Aged","970 PLENTY Road","SOUTH MORANG","3752","970 PLENTY Road, SOUTH MORANG, VIC, 3752, Australia",-37.640186,145.097846,"RACF"
"Seymour Health Nursing Home- Barrabill House","Brettoneaux Street","SEYMOUR","3660","Brettoneaux Street, SEYMOUR, VIC, 3660, Australia",-37.0241543,145.1362432,"RACF"
"Simpkin House","8 GIBSON Street","NORTH BENDIGO","3550","8 GIBSON Street, NORTH BENDIGO, VIC, 3550, Australia",-36.73367375,144.269167243124,"RACF"
"Skipton Hostel","4 BLAKE Street","SKIPTON","3361","4 BLAKE Street, SKIPTON, VIC, 3361, Australia",-37.684628,143.366678,"RACF"
"Somerville Gardens Care Community","22 GRAF Road","SOMERVILLE","3912","22 GRAF Road, SOMERVILLE, VIC, 3912, Australia",-38.225146,145.168229,"RACF"
"South Port Community Residential Home","18-30 RICHARDSON Street","ALBERT PARK","3206","18-30 RICHARDSON Street, ALBERT PARK, VIC, 3206, Australia",-37.842335,144.948354,"RACF"
"St Andrews Hostel","98 FORREST Street","ARDEER","3022","98 FORREST Street, ARDEER, VIC, 3022, Australia",-37.78317235,144.812257162364,"RACF"
"St Basil's Homes for the Aged in Victoria","24-36 Lorne Street","FAWKNER","3060","24-36 Lorne Street, FAWKNER, VIC, 3060, Australia",-37.714364,144.975696,"RACF"
"St Catherine's Hostel Wangaratta Inc","59-69 RYLEY Street","WANGARATTA","3677","59-69 RYLEY Street, WANGARATTA, VIC, 3677, Australia",-36.356965,146.323054,"RACF"
"St Elmo's Nursing Home","85 Commercial Road","YARRAM","3971","85 Commercial Road, YARRAM, VIC, 3971, Australia",-38.55708255,146.678197336344,"RACF"
"St John's Nursing Home","138 Williams Road","WANGARATTA","3677","138 Williams Road, WANGARATTA, VIC, 3677, Australia",-36.344985,146.29036,"RACF"
"St Paul's Hostel for the Elderly","15-17 STRETTLE Street","THORNBURY","3071","15-17 STRETTLE Street, THORNBURY, VIC, 3071, Australia",-37.7540902,144.983701959358,"RACF"
"St Vincent's Care Services Eltham","43 DIAMOND Street","ELTHAM","3095","43 DIAMOND Street, ELTHAM, VIC, 3095, Australia",-37.7117839,145.1472214,"RACF"
"St Vincent's Care Services Hawthorn","4 KING Street","HAWTHORN EAST","3123","4 KING Street, HAWTHORN EAST, VIC, 3123, Australia",-37.8315396,145.0534926,"RACF"
"St Vincent's Care Services Kew","104 STUDLEY PARK Road","KEW","3101","104 STUDLEY PARK Road, KEW, VIC, 3101, Australia",-37.8044972,145.0156781,"RACF"
"St Vincent's Care Services Werribee","240 HOPPERS Lane","WERRIBEE","3030","240 HOPPERS Lane, WERRIBEE, VIC, 3030, Australia",-37.88797145,144.702129704012,"RACF"
"Stretton Park Hostel","35-47 Kent Street","MAFFRA","3860","35-47 Kent Street, MAFFRA, VIC, 3860, Australia",-37.957842,146.983428,"RACF"
"Sunlight Residential Aged Care","43 LAUREL Street","WHITTLESEA","3757","43 LAUREL Street, WHITTLESEA, VIC, 3757, Australia",-37.514674,145.118385,"RACF"
"Sunnyside House Inc","1 ADENEY Street","CAMPERDOWN","3260","1 ADENEY Street, CAMPERDOWN, VIC, 3260, Australia",-38.237465,143.153488,"RACF"
"Sunnyside Lutheran Retirement Village","6 TRINITY Drive","HORSHAM","3400","6 TRINITY Drive, HORSHAM, VIC, 3400, Australia",-36.708469,142.215949,"RACF"
"Sutherland Lodge","121 MCKEAN Street","BAIRNSDALE","3875","121 MCKEAN Street, BAIRNSDALE, VIC, 3875, Australia",-37.831929,147.606169,"RACF"
"Sutton Park Aged Care","126-134 Exford Road","MELTON SOUTH","3338","126-134 Exford Road, MELTON SOUTH, VIC, 3338, Australia",-37.71544735,144.573124740665,"RACF"
"Tabulam & Templer Home for the Aged","31-41 ELIZABETH Street","BAYSWATER","3153","31-41 ELIZABETH Street, BAYSWATER, VIC, 3153, Australia",-37.856123,145.263887,"RACF"
"Talbot Place Aged Care Facility","1205 DANA Street","BALLARAT","3350","1205 DANA Street, BALLARAT, VIC, 3350, Australia",-37.563267,143.84963,"RACF"
"Tannoch Brae Aged Care","46 ALDERSHOT Road","ST ALBANS PARK","3219","46 ALDERSHOT Road, ST ALBANS PARK, VIC, 3219, Australia",-38.185322,144.395563,"RACF"
"Tarago Views Aged Care","29-39 Main Road","NEERIM SOUTH","3831","29-39 Main Road, NEERIM SOUTH, VIC, 3831, Australia",-38.022053,145.954085,"RACF"
"Templestowe Manor","410-418 Thompsons Road","TEMPLESTOWE LOWER","3107","410-418 Thompsons Road, TEMPLESTOWE LOWER, VIC, 3107, Australia",-37.758725,145.113901,"RACF"
"The Alexander Aged Care Centre","1720 DANDENONG Road","CLAYTON","3168","1720 DANDENONG Road, CLAYTON, VIC, 3168, Australia",-37.912744,145.123839,"RACF"
"The Ashley Aged Care","17-21 ASHLEY Street","RESERVOIR","3073","17-21 ASHLEY Street, RESERVOIR, VIC, 3073, Australia",-37.7178646,145.001558957136,"RACF"
"The Bays Aged Care","86 VICTORIA Street","HASTINGS","3915","86 VICTORIA Street, HASTINGS, VIC, 3915, Australia",-38.303444,145.190309,"RACF"
"The Belmont Residential Aged Care","235 High Street","BELMONT","3216","235 High Street, BELMONT, VIC, 3216, Australia",-38.17784925,144.340792238469,"RACF"
"The Birches","Foster Street","HAMILTON","3300","Foster Street, HAMILTON, VIC, 3300, Australia",-37.7364357,142.0290434,"RACF"
"The Heights Donvale","39-41 MITCHAM Road","DONVALE","3111","39-41 MITCHAM Road, DONVALE, VIC, 3111, Australia",-37.793933,145.177149,"RACF"
"The Lakes Hostel","107-115 Lake Street","EDENHOPE","3318","107-115 Lake Street, EDENHOPE, VIC, 3318, Australia",-37.035106,141.289421,"RACF"
"Timboon & District Healthcare Service","21 HOSPITAL Road","TIMBOON","3268","21 HOSPITAL Road, TIMBOON, VIC, 3268, Australia",-38.486257,142.977132,"RACF"
"Traralgon Aged Care","69 LIDDIARD Road","TRARALGON","3844","69 LIDDIARD Road, TRARALGON, VIC, 3844, Australia",-38.205044,146.55039,"RACF"
"Trentham Hostel","22-24 VICTORIA Street","TRENTHAM","3458","22-24 VICTORIA Street, TRENTHAM, VIC, 3458, Australia",-37.386736,144.327598,"RACF"
"Trevi Court Aged Care","95 BULLA Road","ESSENDON","3040","95 BULLA Road, ESSENDON, VIC, 3040, Australia",-37.736465,144.904165,"RACF"
"Trinity Manor","8-14 Pretoria Street","BALWYN","3103","8-14 Pretoria Street, BALWYN, VIC, 3103, Australia",-37.8103913,145.0654417,"RACF"
"Trinity Manor Burwood","12-16 Edwards Street","BURWOOD","3125","12-16 Edwards Street, BURWOOD, VIC, 3125, Australia",-37.8490541,145.101059,"RACF"
"Trinity Manor Greensborough","226-230 ELDER Street","GREENSBOROUGH","3088","226-230 ELDER Street, GREENSBOROUGH, VIC, 3088, Australia",-37.717365,145.105478,"RACF"
"Twin Parks Aged Care Centre","33-45 BLAKE Street","RESERVOIR","3073","33-45 BLAKE Street, RESERVOIR, VIC, 3073, Australia",-37.732136,145.036739,"RACF"
"Twin Parks Private Hostel","47 BLAKE Street","RESERVOIR","3073","47 BLAKE Street, RESERVOIR, VIC, 3073, Australia",-37.732101,145.036395,"RACF"
"Uniting AgeWell Andrew Kerr Care Community","67-69 TANTI Avenue","MORNINGTON","3931","67-69 TANTI Avenue, MORNINGTON, VIC, 3931, Australia",-38.2198792,145.0443902,"RACF"
"Uniting AgeWell Box Hill Community","75 THAMES Street","BOX HILL","3128","75 THAMES Street, BOX HILL, VIC, 3128, Australia",-37.8136685,145.1231983,"RACF"
"Uniting AgeWell Camberwell Community, Condare Court","8 Joffre Street","CAMBERWELL","3124","8 Joffre Street, CAMBERWELL, VIC, 3124, Australia",-37.843026,145.091903,"RACF"
"Uniting AgeWell Hawthorn Community","27-29 WATTLE Road","HAWTHORN","3122","27-29 WATTLE Road, HAWTHORN, VIC, 3122, Australia",-37.823246,145.028545,"RACF"
"Uniting AgeWell Kalkee Community, Murray","9 SPRING Street","BELMONT","3216","9 SPRING Street, BELMONT, VIC, 3216, Australia",-38.180212,144.348934,"RACF"
"Uniting AgeWell Kalkee Community, Nangatta","206 HIGH Street","BELMONT","3216","206 HIGH Street, BELMONT, VIC, 3216, Australia",-38.176401,144.341023,"RACF"
"Uniting AgeWell Kingsville Community","319 GEELONG Road","KINGSVILLE","3012","319 GEELONG Road, KINGSVILLE, VIC, 3012, Australia",-37.807507,144.876973,"RACF"
"Uniting AgeWell Manor Lakes Community","15 BUFFALO Crescent","WYNDHAM VALE","3024","15 BUFFALO Crescent, WYNDHAM VALE, VIC, 3024, Australia",-37.873557,144.606506,"RACF"
"Uniting AgeWell Noble Park Community","1312 HEATHERTON Road","NOBLE PARK","3174","1312 HEATHERTON Road, NOBLE PARK, VIC, 3174, Australia",-37.9671768,145.1905046,"RACF"
"Uniting AgeWell Preston Community","78 BRUCE Street","PRESTON","3072","78 BRUCE Street, PRESTON, VIC, 3072, Australia",-37.741354,144.992402,"RACF"
"Uniting AgeWell Strathdon Community","17 Jolimont Road","FOREST HILL","3131","17 Jolimont Road, FOREST HILL, VIC, 3131, Australia",-37.842917,145.172682,"RACF"
"Uniting AgeWell Strath-Haven Community","131-149 CONDON Street","BENDIGO","3550","131-149 CONDON Street, BENDIGO, VIC, 3550, Australia",-36.773639,144.306483,"RACF"
"Valley View Nursing Home","71 MCLEOD Street","COLERAINE","3315","71 MCLEOD Street, COLERAINE, VIC, 3315, Australia",-37.599783,141.692466,"RACF"
"Vasey RSL Care, Brighton","21 DOWNES Avenue","BRIGHTON","3186","21 DOWNES Avenue, BRIGHTON, VIC, 3186, Australia",-37.899866,144.99826,"RACF"
"Vasey RSL Care, Brighton East","709-723 HAWTHORN Road","BRIGHTON EAST","3187","709-723 HAWTHORN Road, BRIGHTON EAST, VIC, 3187, Australia",-37.910184,145.018054,"RACF"
"Vasey RSL Care, Bundoora","5-7 TOWER Avenue","BUNDOORA","3083","5-7 TOWER Avenue, BUNDOORA, VIC, 3083, Australia",-37.702832,145.054677,"RACF"
"Vasey RSL Care, Frankston South","85 OVERPORT Road","FRANKSTON SOUTH","3199","85 OVERPORT Road, FRANKSTON SOUTH, VIC, 3199, Australia",-38.169543,145.123467,"RACF"
"Vermont Aged Care","770 CANTERBURY Road","VERMONT","3133","770 CANTERBURY Road, VERMONT, VIC, 3133, Australia",-37.833574,145.209389,"RACF"
"Victoria By The Park","27 VICTORIA Street","ELSTERNWICK","3185","27 VICTORIA Street, ELSTERNWICK, VIC, 3185, Australia",-37.88754405,145.010321011792,"RACF"
"Victorian Croatian Aged Care Services Inc","38-46 BARTON Street","BELL PARK","3215","38-46 BARTON Street, BELL PARK, VIC, 3215, Australia",-38.105215,144.333892,"RACF"
"Victorian Elderly Chinese Hostel","77 HURTLE Street","ASCOT VALE","3032","77 HURTLE Street, ASCOT VALE, VIC, 3032, Australia",-37.774426,144.906002,"RACF"
"Villa Del Sole","73 WILLIAM Street","GLENROY","3046","73 WILLIAM Street, GLENROY, VIC, 3046, Australia",-37.705384,144.907769,"RACF"
"Villa Maria Catholic Homes O'Neill","101 LEWISHAM Road  North","PRAHRAN","3181","101 LEWISHAM Road  North, PRAHRAN, VIC, 3181, Australia",-37.850912,144.999893,"RACF"
"Village Baxter Lodge","8 Robinsons Road","FRANKSTON SOUTH","3199","8 Robinsons Road, FRANKSTON SOUTH, VIC, 3199, Australia",-38.17800695,145.147799497347,"RACF"
"Village Glen Aged Care Residences - Capel Sound","34A BALAKA Street","ROSEBUD WEST","3940","34A BALAKA Street, ROSEBUD WEST, VIC, 3940, Australia",-38.370158,144.880253,"RACF"
"Village Glen Aged Care Residences - Mornington","827 NEPEAN Highway","MORNINGTON","3931","827 NEPEAN Highway, MORNINGTON, VIC, 3931, Australia",-38.234324,145.038154,"RACF"
"VMCH Berwick","89-93 AVEBURY Drive","BERWICK","3806","89-93 AVEBURY Drive, BERWICK, VIC, 3806, Australia",-38.023891,145.329296,"RACF"
"VMCH Bundoora","1424 PLENTY Road","BUNDOORA","3083","1424 PLENTY Road, BUNDOORA, VIC, 3083, Australia",-37.6921584,145.063239,"RACF"
"VMCH Corpus Christi","80 CLAYTON Road","CLAYTON","3168","80 CLAYTON Road, CLAYTON, VIC, 3168, Australia",-37.905349,145.123733,"RACF"
"VMCH John R Hannah","68 WATTLE Grove","MULGRAVE","3170","68 WATTLE Grove, MULGRAVE, VIC, 3170, Australia",-37.93216,145.158709,"RACF"
"VMCH Justin Villa","2 CARAVAN Street","BALWYN","3103","2 CARAVAN Street, BALWYN, VIC, 3103, Australia",-37.80557615,145.095865666109,"RACF"
"VMCH Providence","9 GRIFFITH Street","MADDINGLEY","3340","9 GRIFFITH Street, MADDINGLEY, VIC, 3340, Australia",-37.6864218,144.4276799,"RACF"
"VMCH Shanagolden","153-177 Webster Way","PAKENHAM","3810","153-177 Webster Way, PAKENHAM, VIC, 3810, Australia",-38.086722,145.47379,"RACF"
"VMCH St Bernadette's","17 PARK Drive","SUNSHINE NORTH","3020","17 PARK Drive, SUNSHINE NORTH, VIC, 3020, Australia",-37.759468,144.825453,"RACF"
"VMCH St Catherine's","1 CLAYTON Road","BALWYN","3103","1 CLAYTON Road, BALWYN, VIC, 3103, Australia",-37.805381,145.095122,"RACF"
"VMCH Star Of The Sea","Horseshoe Bend Road","TORQUAY","3228","Horseshoe Bend Road, TORQUAY, VIC, 3228, Australia",-38.31207575,144.338976917177,"RACF"
"VMCH Wantirna","355 STUD Road","WANTIRNA SOUTH","3152","355 STUD Road, WANTIRNA SOUTH, VIC, 3152, Australia",-37.8710949,145.2338182,"RACF"
"VMCH Willowbrooke","9A WILLOW Road","UPPER FERNTREE GULLY","3156","9A WILLOW Road, UPPER FERNTREE GULLY, VIC, 3156, Australia",-37.895268,145.30457,"RACF"
"Wannon Court Hostel","72-74 Pilleau Street","COLERAINE","3315","72-74 Pilleau Street, COLERAINE, VIC, 3315, Australia",-37.6005829,141.6907611,"RACF"
"Wantirna Views Care Community","100 Harold Street","WANTIRNA","3152","100 Harold Street, WANTIRNA, VIC, 3152, Australia",-37.85505445,145.228546646625,"RACF"
"Waranga Aged Care Hostel","14 HIGH Street","RUSHWORTH","3612","14 HIGH Street, RUSHWORTH, VIC, 3612, Australia",-36.587144,145.016407,"RACF"
"Warralily Gardens","2-28 FREDA Road","ARMSTRONG CREEK","3217","2-28 FREDA Road, ARMSTRONG CREEK, VIC, 3217, Australia",-38.236695,144.335773,"RACF"
"Warramunda Village","Warramunda Drive","KYABRAM","3620","Warramunda Drive, KYABRAM, VIC, 3620, Australia",-36.3164213,145.0431386,"RACF"
"Warrandyte Gardens Care Community","205 Warrandyte Road","RINGWOOD NORTH","3134","205 Warrandyte Road, RINGWOOD NORTH, VIC, 3134, Australia",-37.79202545,145.234616248429,"RACF"
"Warrawee Community","854A CENTRE Road","BENTLEIGH EAST","3165","854A CENTRE Road, BENTLEIGH EAST, VIC, 3165, Australia",-37.9240638,145.0728187,"RACF"
"Warrina Aged Care","176 Station Road","NEW GISBORNE","3438","176 Station Road, NEW GISBORNE, VIC, 3438, Australia",-37.468516,144.596439,"RACF"
"Warrina Hostel","26 PIPER Street","YARRAWONGA","3730","26 PIPER Street, YARRAWONGA, VIC, 3730, Australia",-36.010874,146.005718,"RACF"
"Warrnambool Place Care Community","170 RAGLAN Parade","WARRNAMBOOL","3280","170 RAGLAN Parade, WARRNAMBOOL, VIC, 3280, Australia",-38.382731,142.51741,"RACF"
"Warrnambool Riverside Care Community","62-76 HUNTINGFIELD Drive","WARRNAMBOOL","3280","62-76 HUNTINGFIELD Drive, WARRNAMBOOL, VIC, 3280, Australia",-38.386817,142.531025,"RACF"
"Water Gardens","352 SYDENHAM Road","SYDENHAM","3037","352 SYDENHAM Road, SYDENHAM, VIC, 3037, Australia",-37.703094,144.773082011699,"RACF"
"Wattle Rise","75-85 Clarendon Street","MARYBOROUGH","3465","75-85 Clarendon Street, MARYBOROUGH, VIC, 3465, Australia",-37.0411009,143.7396713,"RACF"
"Waverley Valley Aged Care","29-33 CHESTERVILLE Road","GLEN WAVERLEY","3150","29-33 CHESTERVILLE Road, GLEN WAVERLEY, VIC, 3150, Australia",-37.8697045,145.1587995,"RACF"
"Weary Dunlop Retirement Village","242 Jells Road","WHEELERS HILL","3150","242 Jells Road, WHEELERS HILL, VIC, 3150, Australia",-37.9122656,145.1885785,"RACF"
"Westgate Aged Care Facility","4 WILLIAM Street","NEWPORT","3015","4 WILLIAM Street, NEWPORT, VIC, 3015, Australia",-37.84137675,144.87935860764,"RACF"
"Westmont Homestead","265 Baranduda Boulevard","BARANDUDA","3691","265 Baranduda Boulevard, BARANDUDA, VIC, 3691, Australia",-36.173886,146.933942,"RACF"
"Wharparilla Lodge","Hartshorn Drive","ECHUCA WEST","3564","Hartshorn Drive, ECHUCA WEST, VIC, 3564, Australia",-36.1306376,144.7218331,"RACF"
"Whittlesea Lodge","30-32 Fir Street","WHITTLESEA","3757","30-32 Fir Street, WHITTLESEA, VIC, 3757, Australia",-37.509557,145.1164218,"RACF"
"Willowbrae - Melton","116 Centenary Avenue","MELTON","3337","116 Centenary Avenue, MELTON, VIC, 3337, Australia",-37.673493,144.577165,"RACF"
"Wilson Lodge","155 GUTHRIDGE Parade","SALE","3850","155 GUTHRIDGE Parade, SALE, VIC, 3850, Australia",-38.10892,147.08139,"RACF"
"Wimmera Nursing Home","2 BAILLIE Street","HORSHAM","3400","2 BAILLIE Street, HORSHAM, VIC, 3400, Australia",-36.711496,142.217275,"RACF"
"Wintringham Eunice Seddon Home","34-42 Potter Street","DANDENONG","3175","34-42 Potter Street, DANDENONG, VIC, 3175, Australia",-37.9846798,145.2056437,"RACF"
"Wintringham Gilgunya Village","23 Harding Street","COBURG","3058","23 Harding Street, COBURG, VIC, 3058, Australia",-37.745196,144.969244,"RACF"
"Wintringham Hostel - Port Melbourne","79 SWALLOW Street","PORT MELBOURNE","3207","79 SWALLOW Street, PORT MELBOURNE, VIC, 3207, Australia",-37.837856,144.93252,"RACF"
"Wintringham McLean Lodge Hostel","1 LITTLE PRINCES Street","TRAVANCORE","3031","1 LITTLE PRINCES Street, TRAVANCORE, VIC, 3031, Australia",-37.783222,144.936157,"RACF"
"Wintringham Ron Conn Nursing Home","33 WESTMINSTER Drive","AVONDALE HEIGHTS","3034","33 WESTMINSTER Drive, AVONDALE HEIGHTS, VIC, 3034, Australia",-37.764937,144.859477,"RACF"
"Wintringham Williamstown Hostel","2-20 WINTRINGHAM Road","WILLIAMSTOWN NORTH","3016","2-20 WINTRINGHAM Road, WILLIAMSTOWN NORTH, VIC, 3016, Australia",-37.85507,144.879353,"RACF"
"Woods Point Aged Care","75-85 ORR Street","YARRAWONGA","3730","75-85 ORR Street, YARRAWONGA, VIC, 3730, Australia",-36.013173,146.013964,"RACF"
"Woorayl Lodge Inc","71-73 Mccartin Street","LEONGATHA","3953","71-73 Mccartin Street, LEONGATHA, VIC, 3953, Australia",-38.4778479,145.9438662,"RACF"
"Yackandandah Health","20 ISAACS Avenue","YACKANDANDAH","3749","20 ISAACS Avenue, YACKANDANDAH, VIC, 3749, Australia",-36.3106458,146.84572931653,"RACF"
"Yarraman Nursing Home","22B YARRAMAN Road","NOBLE PARK","3174","22B YARRAMAN Road, NOBLE PARK, VIC, 3174, Australia",-37.977285,145.180886,"RACF"
"Yarriambiack Lodge Hostel","18 DIMBOOLA Road","WARRACKNABEAL","3393","18 DIMBOOLA Road, WARRACKNABEAL, VIC, 3393, Australia",-36.252499,142.381913,"RACF"
